{
"type": "FeatureCollection",
"name": "geo_17_1",
"crs": { "type": "name", "properties": { "name": "urn:ogc:def:crs:OGC:1.3:CRS84" } },
"features": [
{ "type": "Feature", "properties": { "内容": "あらきクリニック【1:病院】【診療科目:形成外科_小児科_産婦人科_皮膚科_美容皮膚科】【一般病床数:19療養病床数:0精神病床数:0感染症病床数:0合計病床数:19】石川県小松市若杉町９５", "url": "https://www.iryou.teikyouseido.mhlw.go.jp/znk-web/juminkanja/S2430/initialize?prefCd=17&kikanCd=1112001&kikanKbn=1", "url2": "http//www.arakihospital.com/" }, "geometry": { "type": "Point", "coordinates": [ 136.479661, 36.400069 ] } },
{ "type": "Feature", "properties": { "内容": "医療法人社団澄鈴会　粟津神経サナトリウム【1:病院】【診療科目:内科_精神科_心療内科】【一般病床数:0療養病床数:0精神病床数:263感染症病床数:0合計病床数:263】石川県小松市矢田野町", "url": "https://www.iryou.teikyouseido.mhlw.go.jp/znk-web/juminkanja/S2430/initialize?prefCd=17&kikanCd=1112002&kikanKbn=1", "url2": "http://choureikai.jp/" }, "geometry": { "type": "Point", "coordinates": [ 136.423416, 36.351011 ] } },
{ "type": "Feature", "properties": { "内容": "医療法人社団岡本会　岡本病院【1:病院】【診療科目:内科_脳神経内科_美容皮膚科_精神科】【一般病床数:0療養病床数:38精神病床数:0感染症病床数:0合計病床数:38】石川県小松市小馬出町１３番地", "url": "https://www.iryou.teikyouseido.mhlw.go.jp/znk-web/juminkanja/S2430/initialize?prefCd=17&kikanCd=1112003&kikanKbn=1", "url2": "http://okamotohospital.sakura.ne.jp" }, "geometry": { "type": "Point", "coordinates": [ 136.448238, 36.406496 ] } },
{ "type": "Feature", "properties": { "内容": "医療法人社団　愛康会　小松ソフィア病院【1:病院】【診療科目:内科_糖尿病・内分泌内科_脳神経内科_呼吸器内科_循環器内科_消化器内科_腎臓内科_アレルギー科_リハビリテーション科】【一般病床数:48療養病床数:0精神病床数:0感染症病床数:0合計病床数:48】石川県小松市沖町４７８番地", "url": "https://www.iryou.teikyouseido.mhlw.go.jp/znk-web/juminkanja/S2430/initialize?prefCd=17&kikanCd=1112004&kikanKbn=1", "url2": "http://www.sophia-hosp.jp" }, "geometry": { "type": "Point", "coordinates": [ 136.463692, 36.396337 ] } },
{ "type": "Feature", "properties": { "内容": "恵愛みらいクリニック【1:病院】【診療科目:小児科_産婦人科】【一般病床数:19療養病床数:0精神病床数:0感染症病床数:0合計病床数:19】石川県小松市光町１番地１", "url": "https://www.iryou.teikyouseido.mhlw.go.jp/znk-web/juminkanja/S2430/initialize?prefCd=17&kikanCd=1112005&kikanKbn=1", "url2": "https://keiai-kmt.or.jp" }, "geometry": { "type": "Point", "coordinates": [ 136.457415, 36.404687 ] } },
{ "type": "Feature", "properties": { "内容": "国民健康保険　小松市民病院【1:病院】【診療科目:内科_血液内科_代謝・内分泌内科_脳神経内科_呼吸器内科_循環器内科_消化器内科_腎臓内科_緩和ケア内科_外科_脳神経外科_呼吸器外科_消化器外科_整形外科_形成外科_小児科_産婦人科_眼科_耳鼻いんこう科_皮膚科_泌尿器科_精神科_歯科_歯科口腔外科_リハビリテーション科_放射線科_病理診断科_麻酔科】【一般病床数:300療養病床数:0精神病床数:26感染症病床数:4合計病床数:340】石川県小松市向本折町ホ６０番地", "url": "https://www.iryou.teikyouseido.mhlw.go.jp/znk-web/juminkanja/S2430/initialize?prefCd=17&kikanCd=1112006&kikanKbn=1", "url2": "http://www.hosp.komatsu.ishikawa.jp" }, "geometry": { "type": "Point", "coordinates": [ 136.439354, 36.398852 ] } },
{ "type": "Feature", "properties": { "内容": "小松こども医療福祉センター【1:病院】【診療科目:内科_小児科】【一般病床数:52療養病床数:0精神病床数:0感染症病床数:0合計病床数:52】石川県小松市瀬領町丁１番地２", "url": "https://www.iryou.teikyouseido.mhlw.go.jp/znk-web/juminkanja/S2430/initialize?prefCd=17&kikanCd=1112007&kikanKbn=1", "url2": "http://www.komatsu.isg.or.jp" }, "geometry": { "type": "Point", "coordinates": [ 136.485214, 36.331445 ] } },
{ "type": "Feature", "properties": { "内容": "東病院【1:病院】【診療科目:内科_循環器内科_消化器内科_外科_脳神経外科_整形外科_皮膚科_リハビリテーション科_放射線科】【一般病床数:0療養病床数:33精神病床数:0感染症病床数:0合計病床数:33】石川県小松市大領中町３丁目１２１番地", "url": "https://www.iryou.teikyouseido.mhlw.go.jp/znk-web/juminkanja/S2430/initialize?prefCd=17&kikanCd=1112008&kikanKbn=1", "url2": "http://higashi-hospital.jp" }, "geometry": { "type": "Point", "coordinates": [ 136.447642, 36.387036 ] } },
{ "type": "Feature", "properties": { "内容": "医療法人社団東野会東野病院【1:病院】【診療科目:内科_呼吸器内科_循環器内科_消化器内科_外科_肛門外科_整形外科_リハビリテーション科】【一般病床数:42療養病床数:0精神病床数:0感染症病床数:0合計病床数:42】石川県小松市今江町７丁目４６８番地", "url": "https://www.iryou.teikyouseido.mhlw.go.jp/znk-web/juminkanja/S2430/initialize?prefCd=17&kikanCd=1112009&kikanKbn=1", "url2": "https://higashinohp.jp/" }, "geometry": { "type": "Point", "coordinates": [ 136.432705, 36.377437 ] } },
{ "type": "Feature", "properties": { "内容": "医療法人社団さくら会　森田病院【1:病院】【診療科目:内科_呼吸器内科_消化器内科_神経内科_老年内科_外科_消化器外科_肛門外科_整形外科_リウマチ科_リハビリテーション科_麻酔科】【一般病床数:59療養病床数:40精神病床数:0感染症病床数:0合計病床数:99】石川県小松市園町ホ９９－１", "url": "https://www.iryou.teikyouseido.mhlw.go.jp/znk-web/juminkanja/S2430/initialize?prefCd=17&kikanCd=1112011&kikanKbn=1", "url2": "https://morita-hospital.jp/" }, "geometry": { "type": "Point", "coordinates": [ 136.460412, 36.408249 ] } },
{ "type": "Feature", "properties": { "内容": "特定医療法人社団　勝木会　やわたメディカルセンター【1:病院】【診療科目:内科_糖尿病・内分泌内科_脳神経内科_呼吸器内科_循環器内科_消化器内科_外科_脳神経外科_整形外科_眼科_耳鼻いんこう科_皮膚科_泌尿器科_歯科口腔外科_リウマチ科_リハビリテーション科_放射線科_麻酔科】【一般病床数:208療養病床数:0精神病床数:0感染症病床数:0合計病床数:208】石川県小松市八幡イ１２番地７", "url": "https://www.iryou.teikyouseido.mhlw.go.jp/znk-web/juminkanja/S2430/initialize?prefCd=17&kikanCd=1112012&kikanKbn=1", "url2": "http://www.yawatamedical.com/" }, "geometry": { "type": "Point", "coordinates": [ 136.492274, 36.391941 ] } },
{ "type": "Feature", "properties": { "内容": "国民健康保険能美市立病院【1:病院】【診療科目:内科_外科_脳神経外科_整形外科_小児科_婦人科_眼科_耳鼻いんこう科_皮膚科_泌尿器科_老年精神科_リハビリテーション科】【一般病床数:60療養病床数:40精神病床数:0感染症病床数:0合計病床数:100】石川県能美市大浜町ノ８５番地", "url": "https://www.iryou.teikyouseido.mhlw.go.jp/znk-web/juminkanja/S2430/initialize?prefCd=17&kikanCd=1113013&kikanKbn=1", "url2": "http://nomihsp.com/" }, "geometry": { "type": "Point", "coordinates": [ 136.460023, 36.455117 ] } },
{ "type": "Feature", "properties": { "内容": "公益社団法人石川勤労者医療協会　寺井病院【1:病院】【診療科目:内科_脳神経内科_小児科_リハビリテーション科_放射線科】【一般病床数:0療養病床数:55精神病床数:0感染症病床数:0合計病床数:55】石川県能美市寺井町ウ８４", "url": "https://www.iryou.teikyouseido.mhlw.go.jp/znk-web/juminkanja/S2430/initialize?prefCd=17&kikanCd=1113014&kikanKbn=1", "url2": "http://terai-hospital.jp/" }, "geometry": { "type": "Point", "coordinates": [ 136.489009, 36.438564 ] } },
{ "type": "Feature", "properties": { "内容": "医療法人社団　和楽仁　芳珠記念病院【1:病院】【診療科目:内科_血液内科_内分泌内科_糖尿病・代謝内科_脳神経内科_呼吸器内科_循環器内科_消化器内科_腎臓内科_緩和ケア内科_外科_脳神経外科_消化器外科_乳腺・内分泌外科_肛門外科_整形外科_形成外科_美容外科_小児科_婦人科_眼科_耳鼻いんこう科_皮膚科_泌尿器科_歯科口腔外科_リウマチ科_リハビリテーション科_放射線科_病理診断科_麻酔科】【一般病床数:183療養病床数:0精神病床数:0感染症病床数:0合計病床数:183】石川県能美市緑が丘１１丁目７１番地", "url": "https://www.iryou.teikyouseido.mhlw.go.jp/znk-web/juminkanja/S2430/initialize?prefCd=17&kikanCd=1113015&kikanKbn=1", "url2": "http://www.houju.or.jp" }, "geometry": { "type": "Point", "coordinates": [ 136.536027, 36.442152 ] } },
{ "type": "Feature", "properties": { "内容": "医療法人社団長久会　加賀こころの病院【1:病院】【診療科目:内科_精神科_心療内科】【一般病床数:0療養病床数:0精神病床数:184感染症病床数:0合計病床数:184】石川県加賀市小菅波町１２１番地１", "url": "https://www.iryou.teikyouseido.mhlw.go.jp/znk-web/juminkanja/S2430/initialize?prefCd=17&kikanCd=1211003&kikanKbn=1", "url2": "http://www.chokyu.gr.jp/" }, "geometry": { "type": "Point", "coordinates": [ 136.318371, 36.300386 ] } },
{ "type": "Feature", "properties": { "内容": "片山津温泉丘の上病院【1:病院】【診療科目:精神科】【一般病床数:0療養病床数:0精神病床数:92感染症病床数:0合計病床数:92】石川県加賀市冨塚町中尾１－３", "url": "https://www.iryou.teikyouseido.mhlw.go.jp/znk-web/juminkanja/S2430/initialize?prefCd=17&kikanCd=1211004&kikanKbn=1", "url2": "http://www.aoikai.jp/okanoue-hsp/" }, "geometry": { "type": "Point", "coordinates": [ 136.361194, 36.334869 ] } },
{ "type": "Feature", "properties": { "内容": "医療法人社団慈豊会　久藤総合病院【1:病院】【診療科目:内科_呼吸器内科_循環器内科_消化器内科_外科_脳神経外科_心臓血管外科_整形外科_眼科_耳鼻いんこう科_皮膚科_泌尿器科_リウマチ科_リハビリテーション科_放射線科】【一般病床数:55療養病床数:144精神病床数:0感染症病床数:0合計病床数:199】石川県加賀市大聖寺永町イ１７番地", "url": "https://www.iryou.teikyouseido.mhlw.go.jp/znk-web/juminkanja/S2430/initialize?prefCd=17&kikanCd=1211005&kikanKbn=1", "url2": "http://www.jihoukainet/" }, "geometry": { "type": "Point", "coordinates": [ 136.320248, 36.307794 ] } },
{ "type": "Feature", "properties": { "内容": "独立行政法人国立病院機構石川病院【1:病院】【診療科目:内科_脳神経内科_呼吸器内科_循環器内科_消化器内科_外科_心臓血管外科_整形外科_小児科_眼科_皮膚科_歯科（障害者）】【一般病床数:215療養病床数:0精神病床数:0感染症病床数:0合計病床数:215】石川県加賀市手塚町サ１５０番地", "url": "https://www.iryou.teikyouseido.mhlw.go.jp/znk-web/juminkanja/S2430/initialize?prefCd=17&kikanCd=1211008&kikanKbn=1", "url2": "https://ishikawa.hosp.go.jp/" }, "geometry": { "type": "Point", "coordinates": [ 136.356897, 36.357232 ] } },
{ "type": "Feature", "properties": { "内容": "恵愛会松南病院【1:病院】【診療科目:産科_婦人科】【一般病床数:35療養病床数:0精神病床数:0感染症病床数:0合計病床数:35】石川県白山市若宮３丁目６３番地", "url": "https://www.iryou.teikyouseido.mhlw.go.jp/znk-web/juminkanja/S2430/initialize?prefCd=17&kikanCd=1712210119&kikanKbn=1", "url2": "https://keiai-shonan.jp/guide/" }, "geometry": { "type": "Point", "coordinates": [ 136.573765, 36.518943 ] } },
{ "type": "Feature", "properties": { "内容": "公立松任石川中央病院【1:病院】【診療科目:内科_血液内科_糖尿病・内分泌内科_脳神経内科_呼吸器内科_循環器内科_消化器内科_腎臓内科_漢方内科_外科_脳神経外科_呼吸器外科_心臓血管外科_消化器外科_整形外科_形成外科_小児科_小児外科_産婦人科_眼科_耳鼻いんこう科_皮膚科_泌尿器科_精神科_歯科_歯科口腔外科_リウマチ科_リハビリテーション科_放射線科_放射線治療科_病理診断科_麻酔科】【一般病床数:275療養病床数:0精神病床数:30感染症病床数:0合計病床数:305】石川県白山市倉光三丁目８番地", "url": "https://www.iryou.teikyouseido.mhlw.go.jp/znk-web/juminkanja/S2430/initialize?prefCd=17&kikanCd=2110002&kikanKbn=1", "url2": "http://www.mattohp.jp/" }, "geometry": { "type": "Point", "coordinates": [ 136.565761, 36.51105 ] } },
{ "type": "Feature", "properties": { "内容": "医療法人社団　洋和会　池田病院【1:病院】【診療科目:内科_循環器内科_消化器内科_老年内科_精神科_心療内科_老年精神科】【一般病床数:0療養病床数:0精神病床数:0感染症病床数:0合計病床数:41】石川県野々市市新庄", "url": "https://www.iryou.teikyouseido.mhlw.go.jp/znk-web/juminkanja/S2430/initialize?prefCd=17&kikanCd=2110003&kikanKbn=1", "url2": "http://www.hosphy.jp" }, "geometry": { "type": "Point", "coordinates": [ 136.610632, 36.497177 ] } },
{ "type": "Feature", "properties": { "内容": "医療法人社団浅ノ川　金沢脳神経外科病院【1:病院】【診療科目:脳神経内科_循環器内科_脳神経外科_リハビリテーション科_麻酔科】【一般病床数:60療養病床数:160精神病床数:0感染症病床数:0合計病床数:220】石川県野々市市郷町２６２ー２", "url": "https://www.iryou.teikyouseido.mhlw.go.jp/znk-web/juminkanja/S2430/initialize?prefCd=17&kikanCd=2110004&kikanKbn=1", "url2": "http://www.nouge.net" }, "geometry": { "type": "Point", "coordinates": [ 136.588125, 36.526467 ] } },
{ "type": "Feature", "properties": { "内容": "社会福祉法人　金沢市民生協会　ときわ病院【1:病院】【診療科目:内科_精神科_神経科】【一般病床数:0療養病床数:0精神病床数:268感染症病床数:0合計病床数:268】石川県野々市市中林４丁目１２３番地", "url": "https://www.iryou.teikyouseido.mhlw.go.jp/znk-web/juminkanja/S2430/initialize?prefCd=17&kikanCd=2110005&kikanKbn=1", "url2": "http://www.tokiwahp.or.jp" }, "geometry": { "type": "Point", "coordinates": [ 136.59873, 36.515716 ] } },
{ "type": "Feature", "properties": { "内容": "白山石川医療企業団　公立つるぎ病院【1:病院】【診療科目:内科_呼吸器内科_循環器内科_腎臓内科_外科_脳神経外科_胃腸外科_整形外科_小児科_婦人科_眼科_耳鼻いんこう科_皮膚科_泌尿器科_リハビリテーション科_放射線科_救急科_麻酔科】【一般病床数:152療養病床数:0精神病床数:0感染症病床数:0合計病床数:152】石川県白山市鶴来水戸町ノ１番地", "url": "https://www.iryou.teikyouseido.mhlw.go.jp/znk-web/juminkanja/S2430/initialize?prefCd=17&kikanCd=2110007&kikanKbn=1", "url2": "http://www.tsurugihp.jp/" }, "geometry": { "type": "Point", "coordinates": [ 136.623723, 36.447168 ] } },
{ "type": "Feature", "properties": { "内容": "医療法人社団　新村病院【1:病院】【診療科目:内科_呼吸器内科_循環器内科_胃腸内科_外科_食道外科_消化器外科_胃腸外科_大腸外科_肝臓外科_肝臓・胆のう・膵臓外科_乳腺外科_肛門外科_大腸・肛門外科_腹部外科_内視鏡外科_整形外科_リハビリテーション科_放射線科】【一般病床数:47療養病床数:0精神病床数:0感染症病床数:0合計病床数:47】石川県白山市月橋町７２２番地１２", "url": "https://www.iryou.teikyouseido.mhlw.go.jp/znk-web/juminkanja/S2430/initialize?prefCd=17&kikanCd=2110008&kikanKbn=1", "url2": "http://www.shimmura.or.jp" }, "geometry": { "type": "Point", "coordinates": [ 136.617957, 36.45546 ] } },
{ "type": "Feature", "properties": { "内容": "公立河北中央病院【1:病院】【診療科目:内科_代謝・内分泌内科_脳神経内科_呼吸器内科_循環器内科_消化器内科_腎臓内科_外科_脳神経外科_心臓血管外科_乳腺外科_肛門外科_整形外科_婦人科_眼科_皮膚科_泌尿器科_精神科_心療内科_リハビリテーション科】【一般病床数:60療養病床数:0精神病床数:0感染症病床数:0合計病床数:60】石川県河北郡津幡町字津幡ロ５１番地２", "url": "https://www.iryou.teikyouseido.mhlw.go.jp/znk-web/juminkanja/S2430/initialize?prefCd=17&kikanCd=2210001&kikanKbn=1", "url2": "http://kahoku-hp.jp/" }, "geometry": { "type": "Point", "coordinates": [ 136.736905, 36.670093 ] } },
{ "type": "Feature", "properties": { "内容": "金沢医科大学病院【1:病院】【診療科目:感染症内科_血液内科_糖尿病・内分泌内科_脳神経内科_呼吸器内科_循環器内科_消化器内科_腎臓内科_腫瘍内科_脳神経外科_呼吸器外科_心臓血管外科_消化器外科_乳腺外科_整形外科_形成外科_小児科_小児外科_産科_婦人科_眼科_耳鼻いんこう科_皮膚科_泌尿器科_精神科_神経科_歯科口腔外科_リウマチ科_リハビリテーション科_放射線科_放射線治療科_病理診断科_救急科_麻酔科】【一般病床数:771療養病床数:0精神病床数:36感染症病床数:0合計病床数:807】石川県河北郡内灘町大学１－１", "url": "https://www.iryou.teikyouseido.mhlw.go.jp/znk-web/juminkanja/S2430/initialize?prefCd=17&kikanCd=2210002&kikanKbn=1", "url2": "http://www.kanazawa-med.ac.jp/~hospital/" }, "geometry": { "type": "Point", "coordinates": [ 136.647562, 36.657563 ] } },
{ "type": "Feature", "properties": { "内容": "医療法人社団友愛病院会　内灘温泉病院【1:病院】【診療科目:内科】【一般病床数:0療養病床数:80精神病床数:0感染症病床数:0合計病床数:80】石川県河北郡内灘町白帆台１丁目８８－１", "url": "https://www.iryou.teikyouseido.mhlw.go.jp/znk-web/juminkanja/S2430/initialize?prefCd=17&kikanCd=2210003&kikanKbn=1", "url2": null }, "geometry": { "type": "Point", "coordinates": [ 136.654451, 36.66841 ] } },
{ "type": "Feature", "properties": { "内容": "中田内科病院【1:病院】【診療科目:内科】【一般病床数:0療養病床数:35精神病床数:0感染症病床数:0合計病床数:35】石川県かほく市内日角６－３５－１", "url": "https://www.iryou.teikyouseido.mhlw.go.jp/znk-web/juminkanja/S2430/initialize?prefCd=17&kikanCd=2210005&kikanKbn=1", "url2": null }, "geometry": { "type": "Point", "coordinates": [ 136.69648, 36.716992 ] } },
{ "type": "Feature", "properties": { "内容": "医療法人社団芙蓉会　二ツ屋病院【1:病院】【診療科目:内科_消化器内科_腎臓内科_漢方内科_整形外科_泌尿器科_リハビリテーション科_放射線科】【一般病床数:0療養病床数:0精神病床数:0感染症病床数:0合計病床数:156】石川県かほく市二ツ屋ソ７２番地", "url": "https://www.iryou.teikyouseido.mhlw.go.jp/znk-web/juminkanja/S2430/initialize?prefCd=17&kikanCd=2210006&kikanKbn=1", "url2": "http://www.futatsuya-hp.jp/" }, "geometry": { "type": "Point", "coordinates": [ 136.73856, 36.784819 ] } },
{ "type": "Feature", "properties": { "内容": "医療法人社団豊明会北村病院【1:病院】【診療科目:内科_循環器内科_胃腸内科】【一般病床数:0療養病床数:24精神病床数:0感染症病床数:0合計病床数:24】石川県七尾市御祓町ホ部２６の５", "url": "https://www.iryou.teikyouseido.mhlw.go.jp/znk-web/juminkanja/S2430/initialize?prefCd=17&kikanCd=3110002&kikanKbn=1", "url2": "http://kitamurahospital.iza-yoi.net/" }, "geometry": { "type": "Point", "coordinates": [ 136.963482, 37.04397 ] } },
{ "type": "Feature", "properties": { "内容": "社会医療法人財団董仙会恵寿総合病院【1:病院】【診療科目:内科_血液内科_代謝・内分泌内科_脳神経内科_呼吸器内科_循環器内科_消化器内科_腎臓内科_膠原病内科_外科_脳神経外科_呼吸器外科_心臓血管外科_消化器外科_乳腺外科_整形外科_形成外科_美容外科_小児科_産婦人科_眼科_耳鼻いんこう科_皮膚科_泌尿器科_精神科_心療内科_リハビリテーション科_放射線科_病理診断科_救急科_麻酔科_健診科】【一般病床数:386療養病床数:0精神病床数:0感染症病床数:0合計病床数:386】石川県七尾市富岡町９４番地", "url": "https://www.iryou.teikyouseido.mhlw.go.jp/znk-web/juminkanja/S2430/initialize?prefCd=17&kikanCd=3110003&kikanKbn=1", "url2": "http://www.keiju.co.jp" }, "geometry": { "type": "Point", "coordinates": [ 136.961991, 37.051536 ] } },
{ "type": "Feature", "properties": { "内容": "公立能登総合病院【1:病院】【診療科目:内科_脳神経内科_呼吸器内科_循環器内科_消化器内科_外科_脳神経外科_呼吸器外科_整形外科_形成外科_美容外科_小児科_産婦人科_眼科_耳鼻いんこう科_皮膚科_泌尿器科_精神科_歯科口腔外科_リハビリテーション科_放射線科_病理診断科_麻酔科】【一般病床数:330療養病床数:0精神病床数:100感染症病床数:4合計病床数:434】石川県七尾市藤橋町ア部６番地４", "url": "https://www.iryou.teikyouseido.mhlw.go.jp/znk-web/juminkanja/S2430/initialize?prefCd=17&kikanCd=3110004&kikanKbn=1", "url2": "http://www.noto-hospital.nanao.ishikawa.jp/" }, "geometry": { "type": "Point", "coordinates": [ 136.946607, 37.045061 ] } },
{ "type": "Feature", "properties": { "内容": "独立行政法人国立病院機構七尾病院【1:病院】【診療科目:内科_呼吸器内科_循環器内科_消化器内科_神経内科_ペインクリニック内科_小児科_リハビリテーション科】【一般病床数:214療養病床数:0精神病床数:0感染症病床数:0合計病床数:214】石川県七尾市松百町八部３番地の１", "url": "https://www.iryou.teikyouseido.mhlw.go.jp/znk-web/juminkanja/S2430/initialize?prefCd=17&kikanCd=3110005&kikanKbn=1", "url2": "http://nanao.hosp.go.jp/" }, "geometry": { "type": "Point", "coordinates": [ 136.943872, 37.064338 ] } },
{ "type": "Feature", "properties": { "内容": "七尾松原病院【1:病院】【診療科目:内科_精神科】【一般病床数:0療養病床数:0精神病床数:157感染症病床数:0合計病床数:157】石川県七尾市本府中町ワ部５番地", "url": "https://www.iryou.teikyouseido.mhlw.go.jp/znk-web/juminkanja/S2430/initialize?prefCd=17&kikanCd=3110007&kikanKbn=1", "url2": "http://www.nanamatsuhp.jp" }, "geometry": { "type": "Point", "coordinates": [ 136.969568, 37.036312 ] } },
{ "type": "Feature", "properties": { "内容": "公立羽咋病院【1:病院】【診療科目:内科_循環器内科_外科_脳神経外科_整形外科_形成外科_小児科_産婦人科_眼科_耳鼻いんこう科_皮膚科_泌尿器科_リハビリテーション科_放射線科】【一般病床数:174療養病床数:0精神病床数:0感染症病床数:0合計病床数:174】石川県羽咋市的場町松崎２４番地", "url": "https://www.iryou.teikyouseido.mhlw.go.jp/znk-web/juminkanja/S2430/initialize?prefCd=17&kikanCd=3210001&kikanKbn=1", "url2": "http://www.hakuihp.jp" }, "geometry": { "type": "Point", "coordinates": [ 136.779968, 36.90109 ] } },
{ "type": "Feature", "properties": { "内容": "加藤クリニック【1:病院】【診療科目:糖尿病内科_循環器内科_胃腸内科】【一般病床数:0療養病床数:0精神病床数:0感染症病床数:0合計病床数:0】石川県羽咋郡志賀町高浜町ヘ１－１", "url": "https://www.iryou.teikyouseido.mhlw.go.jp/znk-web/juminkanja/S2430/initialize?prefCd=17&kikanCd=3210003&kikanKbn=1", "url2": "https://kato-hp.com/" }, "geometry": { "type": "Point", "coordinates": [ 136.770622, 37.004701 ] } },
{ "type": "Feature", "properties": { "内容": "医療法人平成会　向クリニック【1:病院】【診療科目:内科_老年内科_小児科_皮膚科】【一般病床数:0療養病床数:0精神病床数:0感染症病床数:0合計病床数:0】石川県羽咋郡志賀町富来領家町ハの３０番地", "url": "https://www.iryou.teikyouseido.mhlw.go.jp/znk-web/juminkanja/S2430/initialize?prefCd=17&kikanCd=3210004&kikanKbn=1", "url2": "https://mukai.clinic/" }, "geometry": { "type": "Point", "coordinates": [ 136.72996, 37.143928 ] } },
{ "type": "Feature", "properties": { "内容": "町立富来病院【1:病院】【診療科目:内科_外科_整形外科_眼科_耳鼻いんこう科_皮膚科_泌尿器科_精神科】【一般病床数:60療養病床数:0精神病床数:0感染症病床数:0合計病床数:60】石川県羽咋郡志賀町富来地頭町７の１１０番１", "url": "https://www.iryou.teikyouseido.mhlw.go.jp/znk-web/juminkanja/S2430/initialize?prefCd=17&kikanCd=3210005&kikanKbn=1", "url2": null }, "geometry": { "type": "Point", "coordinates": [ 136.729366, 37.13738 ] } },
{ "type": "Feature", "properties": { "内容": "みずほ病院【1:病院】【診療科目:内科_糖尿病内科_循環器内科_消化器内科_腎臓内科_人工透析内科_整形外科_泌尿器科】【一般病床数:0療養病床数:79精神病床数:0感染症病床数:0合計病床数:79】石川県河北郡津幡町字潟端４２２番地１", "url": "https://www.iryou.teikyouseido.mhlw.go.jp/znk-web/juminkanja/S2430/initialize?prefCd=17&kikanCd=348&kikanKbn=1", "url2": "http://www. mizuho-h.com" }, "geometry": { "type": "Point", "coordinates": [ 136.710097, 36.655911 ] } },
{ "type": "Feature", "properties": { "内容": "市立輪島病院【1:病院】【診療科目:内科_外科_脳神経外科_整形外科_小児科_産婦人科_眼科_耳鼻いんこう科_皮膚科_泌尿器科_精神科】【一般病床数:171療養病床数:0精神病床数:0感染症病床数:4合計病床数:175】石川県輪島市山岸町は１番１地", "url": "https://www.iryou.teikyouseido.mhlw.go.jp/znk-web/juminkanja/S2430/initialize?prefCd=17&kikanCd=4110001&kikanKbn=1", "url2": "https://www.city.wajima.ishikawa.jp/wajimahp/" }, "geometry": { "type": "Point", "coordinates": [ 136.90557, 37.384242 ] } },
{ "type": "Feature", "properties": { "内容": "公立穴水総合病院【1:病院】【診療科目:内科_循環器内科_外科_整形外科_小児科_産婦人科_眼科_耳鼻いんこう科_皮膚科_泌尿器科_リハビリテーション科_放射線科】【一般病床数:100療養病床数:0精神病床数:0感染症病床数:0合計病床数:100】石川県鳳珠郡穴水町字川島タの８番地", "url": "https://www.iryou.teikyouseido.mhlw.go.jp/znk-web/juminkanja/S2430/initialize?prefCd=17&kikanCd=4110002&kikanKbn=1", "url2": "http://www.anamizu.jp/" }, "geometry": { "type": "Point", "coordinates": [ 136.909599, 37.233429 ] } },
{ "type": "Feature", "properties": { "内容": "公立宇出津総合病院【1:病院】【診療科目:内科_循環器内科_外科_脳神経外科_心臓血管外科_消化器外科_整形外科_小児科_小児外科_産婦人科_眼科_耳鼻いんこう科_皮膚科_泌尿器科_精神科_神経科_リハビリテーション科_放射線科】【一般病床数:100療養病床数:0精神病床数:0感染症病床数:0合計病床数:100】石川県鳳珠郡能登町宇出津タアザ９７番地", "url": "https://www.iryou.teikyouseido.mhlw.go.jp/znk-web/juminkanja/S2430/initialize?prefCd=17&kikanCd=4110004&kikanKbn=1", "url2": "http://www.hospitalnet.jp/" }, "geometry": { "type": "Point", "coordinates": [ 137.146985, 37.308476 ] } },
{ "type": "Feature", "properties": { "内容": "医療法人社団持木会　柳田温泉病院【1:病院】【診療科目:内科_外科_整形外科_リハビリテーション科】【一般病床数:0療養病床数:36精神病床数:0感染症病床数:0合計病床数:36】石川県鳳珠郡能登町字上町８字３９３番地", "url": "https://www.iryou.teikyouseido.mhlw.go.jp/znk-web/juminkanja/S2430/initialize?prefCd=17&kikanCd=4110005&kikanKbn=1", "url2": null }, "geometry": { "type": "Point", "coordinates": [ 137.109835, 37.350165 ] } },
{ "type": "Feature", "properties": { "内容": "珠洲市総合病院【1:病院】【診療科目:内科_外科_脳神経外科_整形外科_小児科_産婦人科_眼科_耳鼻いんこう科_皮膚科_泌尿器科_精神科_リハビリテーション科_放射線科】【一般病床数:108療養病床数:0精神病床数:0感染症病床数:0合計病床数:115】石川県珠洲市野々江町", "url": "https://www.iryou.teikyouseido.mhlw.go.jp/znk-web/juminkanja/S2430/initialize?prefCd=17&kikanCd=4210001&kikanKbn=1", "url2": "http://www.city.suzu.ishikawa.jp/suzuhp" }, "geometry": { "type": "Point", "coordinates": [ 137.270726, 37.443603 ] } },
{ "type": "Feature", "properties": { "内容": "加賀市医療センター【1:病院】【診療科目:内科_代謝・内分泌内科_呼吸器内科_循環器内科_消化器内科_腎臓内科_神経内科_外科_脳神経外科_消化器外科_乳腺外科_肛門外科_整形外科_小児科_産婦人科_眼科_耳鼻いんこう科_皮膚科_泌尿器科_リウマチ科_リハビリテーション科_放射線科_病理診断科_救急科_麻酔科】【一般病床数:300療養病床数:0精神病床数:0感染症病床数:0合計病床数:300】石川県加賀市作見町リ３６番地", "url": "https://www.iryou.teikyouseido.mhlw.go.jp/znk-web/juminkanja/S2430/initialize?prefCd=17&kikanCd=463&kikanKbn=1", "url2": "https://www.kagacityhp.jp/" }, "geometry": { "type": "Point", "coordinates": [ 136.351586, 36.31732 ] } },
{ "type": "Feature", "properties": { "内容": "独立行政法人国立病院機構金沢医療センター【1:病院】【診療科目:内科_内分泌内科_脳神経内科_呼吸器内科_循環器内科_消化器内科_腎臓内科_緩和ケア内科_外科_脳神経外科_呼吸器外科_心臓血管外科_整形外科_小児科_産科_婦人科_眼科_耳鼻いんこう科_皮膚科_泌尿器科_精神科_歯科口腔外科_リハビリテーション科_放射線科_病理診断科_麻酔科】【一般病床数:512療養病床数:0精神病床数:42感染症病床数:0合計病床数:554】石川県金沢市下石引町１番１号", "url": "https://www.iryou.teikyouseido.mhlw.go.jp/znk-web/juminkanja/S2430/initialize?prefCd=17&kikanCd=5110001&kikanKbn=1", "url2": "https://kanazawa.hosp.go.jp/" }, "geometry": { "type": "Point", "coordinates": [ 136.665288, 36.560948 ] } },
{ "type": "Feature", "properties": { "内容": "国立大学法人金沢大学附属病院【1:病院】【診療科目:内科_感染症内科_血液内科_脳神経内科_呼吸器内科_循環器内科_消化器内科_腎臓内科_腫瘍内科_内分泌・代謝内科_脳神経外科_呼吸器外科_心臓血管外科_胃腸外科_乳腺外科_腫瘍外科_整形外科_形成外科_肝臓・胆のう・膵臓・移植外科_小児科_小児外科_産婦人科_眼科_耳鼻いんこう科_皮膚科_泌尿器科_精神科_歯科口腔外科_リウマチ科_リハビリテーション科_放射線診断科_放射線治療科_病理診断科_救急科_麻酔科】【一般病床数:792療養病床数:0精神病床数:38感染症病床数:0合計病床数:830】石川県金沢市宝町１３番１号", "url": "https://www.iryou.teikyouseido.mhlw.go.jp/znk-web/juminkanja/S2430/initialize?prefCd=17&kikanCd=5110002&kikanKbn=1", "url2": "https://web.hosp.kanazawa-u.ac.jp/" }, "geometry": { "type": "Point", "coordinates": [ 136.673589, 36.557199 ] } },
{ "type": "Feature", "properties": { "内容": "金沢市立病院【1:病院】【診療科目:内科_血液内科_糖尿病・内分泌内科_呼吸器内科_循環器内科_消化器内科_腎臓内科_神経内科_外科_脳神経外科_整形外科_小児科_産婦人科_眼科_耳鼻いんこう科_皮膚科_泌尿器科_リウマチ科_リハビリテーション科_放射線科_麻酔科】【一般病床数:275療養病床数:0精神病床数:0感染症病床数:25合計病床数:306】石川県金沢市平和町３－７－３", "url": "https://www.iryou.teikyouseido.mhlw.go.jp/znk-web/juminkanja/S2430/initialize?prefCd=17&kikanCd=5110003&kikanKbn=1", "url2": "http://www4.city.kanazawa.lg.jp/36001/byouin/index.html" }, "geometry": { "type": "Point", "coordinates": [ 136.662594, 36.540758 ] } },
{ "type": "Feature", "properties": { "内容": "金沢赤十字病院【1:病院】【診療科目:内科_呼吸器内科_循環器内科_消化器内科_外科_脳神経外科_乳腺外科_肛門外科_整形外科_小児科_産婦人科_眼科_皮膚科_泌尿器科_リハビリテーション科_放射線科_麻酔科】【一般病床数:262療養病床数:0精神病床数:0感染症病床数:0合計病床数:262】石川県金沢市三馬２－２５１", "url": "https://www.iryou.teikyouseido.mhlw.go.jp/znk-web/juminkanja/S2430/initialize?prefCd=17&kikanCd=5110004&kikanKbn=1", "url2": "https://kanazawa-rc-hosp.jp" }, "geometry": { "type": "Point", "coordinates": [ 136.636344, 36.530304 ] } },
{ "type": "Feature", "properties": { "内容": "国家公務員共済組合連合会　北陸病院【1:病院】【診療科目:内科_代謝・内分泌内科_呼吸器内科_循環器内科_消化器内科_腎臓内科_神経内科_外科_呼吸器外科_心臓血管外科_消化器外科_乳腺外科_肛門外科_整形外科_泌尿器科_リハビリテーション科_放射線科_麻酔科】【一般病床数:125療養病床数:0精神病床数:0感染症病床数:0合計病床数:125】石川県金沢市泉が丘", "url": "https://www.iryou.teikyouseido.mhlw.go.jp/znk-web/juminkanja/S2430/initialize?prefCd=17&kikanCd=5110005&kikanKbn=1", "url2": "http://www.hokuriku.kkr.or.jp/" }, "geometry": { "type": "Point", "coordinates": [ 136.644882, 36.542222 ] } },
{ "type": "Feature", "properties": { "内容": "医療法人積仁会　岡部病院【1:病院】【診療科目:内科_精神科_歯科】【一般病床数:0療養病床数:0精神病床数:287感染症病床数:0合計病床数:287】石川県金沢市長坂町チ１５番地", "url": "https://www.iryou.teikyouseido.mhlw.go.jp/znk-web/juminkanja/S2430/initialize?prefCd=17&kikanCd=5110006&kikanKbn=1", "url2": "http://www.okabe-net.jp/" }, "geometry": { "type": "Point", "coordinates": [ 136.656468, 36.532623 ] } },
{ "type": "Feature", "properties": { "内容": "社会医療法人財団松原愛育会　松原病院【1:病院】【診療科目:内科_児童精神科_精神科_心療内科_老年精神科_歯科】【一般病床数:0療養病床数:30精神病床数:425感染症病床数:0合計病床数:455】石川県金沢市石引４丁目３番５号", "url": "https://www.iryou.teikyouseido.mhlw.go.jp/znk-web/juminkanja/S2430/initialize?prefCd=17&kikanCd=5110007&kikanKbn=1", "url2": "http://matsubara-hospital.org/" }, "geometry": { "type": "Point", "coordinates": [ 136.666757, 36.558195 ] } },
{ "type": "Feature", "properties": { "内容": "社会福祉法人　松原愛育会　石川療育センター【1:病院】【診療科目:内科_小児科_精神科】【一般病床数:60療養病床数:0精神病床数:0感染症病床数:0合計病床数:60】石川県金沢市上中町イ６７の２", "url": "https://www.iryou.teikyouseido.mhlw.go.jp/znk-web/juminkanja/S2430/initialize?prefCd=17&kikanCd=5110009&kikanKbn=1", "url2": "http://www.m-aiiku.jp/ryouiku" }, "geometry": { "type": "Point", "coordinates": [ 136.70326, 36.519859 ] } },
{ "type": "Feature", "properties": { "内容": "結城病院【1:病院】【診療科目:内科_児童精神科_精神科】【一般病床数:0療養病床数:0精神病床数:129感染症病床数:0合計病床数:129】石川県金沢市円光寺", "url": "https://www.iryou.teikyouseido.mhlw.go.jp/znk-web/juminkanja/S2430/initialize?prefCd=17&kikanCd=5110010&kikanKbn=1", "url2": "http://www.kfk-yukihp.or.jp" }, "geometry": { "type": "Point", "coordinates": [ 136.645347, 36.534468 ] } },
{ "type": "Feature", "properties": { "内容": "医療法人社団晃樹会　石田病院【1:病院】【診療科目:内科_糖尿病・代謝内科_循環器内科_消化器内科_肛門内科_外科_消化器外科_肛門外科_整形外科_リハビリテーション科_麻酔科】【一般病床数:0療養病床数:40精神病床数:0感染症病床数:0合計病床数:40】石川県金沢市寺町３丁目１０番１５号", "url": "https://www.iryou.teikyouseido.mhlw.go.jp/znk-web/juminkanja/S2430/initialize?prefCd=17&kikanCd=5110011&kikanKbn=1", "url2": "https://www.ishida-hospital.com/" }, "geometry": { "type": "Point", "coordinates": [ 136.655769, 36.550476 ] } },
{ "type": "Feature", "properties": { "内容": "医療法人社団竜山会　石野病院【1:病院】【診療科目:内科_呼吸器内科_消化器内科_外科_整形外科_皮膚科_リハビリテーション科】【一般病床数:0療養病床数:60精神病床数:0感染症病床数:0合計病床数:60】石川県金沢市千日町", "url": "https://www.iryou.teikyouseido.mhlw.go.jp/znk-web/juminkanja/S2430/initialize?prefCd=17&kikanCd=5110012&kikanKbn=1", "url2": "http://www1.och.ne.jp/^ishino-h/" }, "geometry": { "type": "Point", "coordinates": [ 136.647658, 36.560884 ] } },
{ "type": "Feature", "properties": { "内容": "川北病院【1:病院】【診療科目:整形外科_リハビリテーション科】【一般病床数:0療養病床数:66精神病床数:0感染症病床数:0合計病床数:66】石川県金沢市野町", "url": "https://www.iryou.teikyouseido.mhlw.go.jp/znk-web/juminkanja/S2430/initialize?prefCd=17&kikanCd=5110013&kikanKbn=1", "url2": null }, "geometry": { "type": "Point", "coordinates": [ 136.647281, 36.554201 ] } },
{ "type": "Feature", "properties": { "内容": "医療法人社団和幸会　鈴木レディスホスピタル【1:病院】【診療科目:消化器内科_外科_小児科_産科_婦人科_泌尿器科_麻酔科】【一般病床数:28療養病床数:0精神病床数:0感染症病床数:0合計病床数:28】石川県金沢市寺町２丁目８番３６号", "url": "https://www.iryou.teikyouseido.mhlw.go.jp/znk-web/juminkanja/S2430/initialize?prefCd=17&kikanCd=5110014&kikanKbn=1", "url2": "http://www.suzukilh.com" }, "geometry": { "type": "Point", "coordinates": [ 136.656236, 36.548582 ] } },
{ "type": "Feature", "properties": { "内容": "医療法人社団博倉会　伊藤病院【1:病院】【診療科目:内科_糖尿病・内分泌内科_循環器内科_消化器内科_内視鏡内科_肛門外科_皮膚科_リハビリテーション科_放射線科】【一般病床数:28療養病床数:0精神病床数:0感染症病床数:0合計病床数:28】石川県金沢市十三間町９８番地", "url": "https://www.iryou.teikyouseido.mhlw.go.jp/znk-web/juminkanja/S2430/initialize?prefCd=17&kikanCd=5110015&kikanKbn=1", "url2": "http://ito-hp.jp" }, "geometry": { "type": "Point", "coordinates": [ 136.652111, 36.557029 ] } },
{ "type": "Feature", "properties": { "内容": "特定医療法人扇翔会　南ヶ丘病院【1:病院】【診療科目:内科_循環器内科_消化器内科_腎臓内科_外科_消化器外科_整形外科_形成外科_小児科_泌尿器科_リハビリテーション科_放射線診断科_麻酔科】【一般病床数:120療養病床数:0精神病床数:0感染症病床数:0合計病床数:120】石川県野々市市西部中央土地区画整理事業施行地区５６街区１番", "url": "https://www.iryou.teikyouseido.mhlw.go.jp/znk-web/juminkanja/S2430/initialize?prefCd=17&kikanCd=5110017&kikanKbn=1", "url2": "http://www.minamigaoka-hp.or.jp/" }, "geometry": { "type": "Point", "coordinates": [ 136.593974, 36.526516 ] } },
{ "type": "Feature", "properties": { "内容": "独立行政法人国立病院機構　医王病院【1:病院】【診療科目:内科_脳神経内科_呼吸器内科_外科_整形外科_小児科_皮膚科_精神科_歯科_リハビリテーション科】【一般病床数:310療養病床数:0精神病床数:0感染症病床数:0合計病床数:310】石川県金沢市岩出町ニ７３番地１", "url": "https://www.iryou.teikyouseido.mhlw.go.jp/znk-web/juminkanja/S2430/initialize?prefCd=17&kikanCd=5110018&kikanKbn=1", "url2": "https://iou.hosp.go.jp/" }, "geometry": { "type": "Point", "coordinates": [ 136.702085, 36.611043 ] } },
{ "type": "Feature", "properties": { "内容": "社会医療法人財団董仙会　恵寿金沢病院【1:病院】【診療科目:内科_血液内科_呼吸器内科_外科_消化器外科_整形外科_緩和ケア外科_耳鼻いんこう科_リウマチ科_リハビリテーション科】【一般病床数:89療養病床数:0精神病床数:0感染症病床数:0合計病床数:89】石川県金沢市下新町６番２６号", "url": "https://www.iryou.teikyouseido.mhlw.go.jp/znk-web/juminkanja/S2430/initialize?prefCd=17&kikanCd=5110019&kikanKbn=1", "url2": "http://www.keiju.co.jp/kanazawahp/" }, "geometry": { "type": "Point", "coordinates": [ 136.662782, 36.57222 ] } },
{ "type": "Feature", "properties": { "内容": "社会福祉法人聖霊病院　　金沢聖霊総合病院【1:病院】【診療科目:内科_胃腸内科_漢方内科_外科_整形外科_小児科_産婦人科_リハビリテーション科_麻酔科】【一般病床数:60療養病床数:0精神病床数:0感染症病床数:0合計病床数:60】石川県金沢市長町１丁目５－３０", "url": "https://www.iryou.teikyouseido.mhlw.go.jp/znk-web/juminkanja/S2430/initialize?prefCd=17&kikanCd=5110020&kikanKbn=1", "url2": "http://www.kanazawa-seirei.jp/" }, "geometry": { "type": "Point", "coordinates": [ 136.649795, 36.56547 ] } },
{ "type": "Feature", "properties": { "内容": "医療法人社団和宏会大手町病院【1:病院】【診療科目:内科_整形外科_リハビリテーション科】【一般病床数:0療養病床数:0精神病床数:0感染症病床数:0合計病床数:220】石川県金沢市大手町５番３２号", "url": "https://www.iryou.teikyouseido.mhlw.go.jp/znk-web/juminkanja/S2430/initialize?prefCd=17&kikanCd=5110021&kikanKbn=1", "url2": "https://www.ootemachi-hosp.jp/" }, "geometry": { "type": "Point", "coordinates": [ 136.662927, 36.5686 ] } },
{ "type": "Feature", "properties": { "内容": "すずみが丘病院【1:病院】【診療科目:内科_神経内科_整形外科_リハビリテーション科】【一般病床数:37療養病床数:60精神病床数:0感染症病床数:0合計病床数:97】石川県金沢市もりの里３丁目７６番地", "url": "https://www.iryou.teikyouseido.mhlw.go.jp/znk-web/juminkanja/S2430/initialize?prefCd=17&kikanCd=5110022&kikanKbn=1", "url2": "http://suzumigaoka-hp.jp" }, "geometry": { "type": "Point", "coordinates": [ 136.682242, 36.562151 ] } },
{ "type": "Feature", "properties": { "内容": "医療法人社団博仁会小池病院【1:病院】【診療科目:内科_循環器内科_胃腸内科_外科_整形外科_リハビリテーション科】【一般病床数:0療養病床数:60精神病床数:0感染症病床数:0合計病床数:60】石川県金沢市大手町８番２０号", "url": "https://www.iryou.teikyouseido.mhlw.go.jp/znk-web/juminkanja/S2430/initialize?prefCd=17&kikanCd=5110023&kikanKbn=1", "url2": "https://www.koike-hospital.jp/" }, "geometry": { "type": "Point", "coordinates": [ 136.664177, 36.56772 ] } },
{ "type": "Feature", "properties": { "内容": "医療法人社団金沢　宗広病院【1:病院】【診療科目:内科_整形外科_リウマチ科_リハビリテーション科_麻酔科】【一般病床数:54療養病床数:0精神病床数:0感染症病床数:0合計病床数:54】石川県金沢市桜町２４番地３０号", "url": "https://www.iryou.teikyouseido.mhlw.go.jp/znk-web/juminkanja/S2430/initialize?prefCd=17&kikanCd=5110024&kikanKbn=1", "url2": "https://munehiro-hp.jp" }, "geometry": { "type": "Point", "coordinates": [ 136.675596, 36.561492 ] } },
{ "type": "Feature", "properties": { "内容": "医療法人社団和宏会　敬愛病院【1:病院】【診療科目:内科_外科_整形外科_リハビリテーション科_放射線科】【一般病床数:0療養病床数:180精神病床数:0感染症病床数:0合計病床数:180】石川県金沢市兼六元町１４番２１号", "url": "https://www.iryou.teikyouseido.mhlw.go.jp/znk-web/juminkanja/S2430/initialize?prefCd=17&kikanCd=5110025&kikanKbn=1", "url2": null }, "geometry": { "type": "Point", "coordinates": [ 136.667429, 36.565276 ] } },
{ "type": "Feature", "properties": { "内容": "独立行政法人地域医療機能推進機構金沢病院【1:病院】【診療科目:内科_外科_脳神経外科_整形外科_小児科_産婦人科_眼科_耳鼻いんこう科_皮膚科_泌尿器科_精神科_歯科口腔外科_リハビリテーション科_放射線科_麻酔科】【一般病床数:248療養病床数:0精神病床数:0感染症病床数:0合計病床数:248】石川県金沢市沖町ハ－１５", "url": "https://www.iryou.teikyouseido.mhlw.go.jp/znk-web/juminkanja/S2430/initialize?prefCd=17&kikanCd=5110026&kikanKbn=1", "url2": "http://kanazawa.jcho.go.jp" }, "geometry": { "type": "Point", "coordinates": [ 136.653287, 36.592818 ] } },
{ "type": "Feature", "properties": { "内容": "公益社団法人　石川勤労者医療協会　城北病院【1:病院】【診療科目:内科_脳神経内科_呼吸器内科_循環器内科_消化器内科_外科_呼吸器外科_血管外科_消化器外科_肛門外科_整形外科_小児科_婦人科_眼科_気管食道・耳鼻いんこう科_皮膚科_泌尿器科_精神科_アレルギー科_リウマチ科_リハビリテーション科_放射線科_病理診断科_麻酔科】【一般病床数:210療養病床数:90精神病床数:0感染症病床数:0合計病床数:300】石川県金沢市京町２０－３", "url": "https://www.iryou.teikyouseido.mhlw.go.jp/znk-web/juminkanja/S2430/initialize?prefCd=17&kikanCd=5110027&kikanKbn=1", "url2": "http://jouhoku-hosp.com/" }, "geometry": { "type": "Point", "coordinates": [ 136.656827, 36.581706 ] } },
{ "type": "Feature", "properties": { "内容": "医療法人財団医王会　医王ヶ丘病院【1:病院】【診療科目:児童精神科_精神科】【一般病床数:0療養病床数:0精神病床数:88感染症病床数:0合計病床数:88】石川県金沢市田上本町ヨ２４番地５", "url": "https://www.iryou.teikyouseido.mhlw.go.jp/znk-web/juminkanja/S2430/initialize?prefCd=17&kikanCd=5110028&kikanKbn=1", "url2": "http://www.iougaoka.com/" }, "geometry": { "type": "Point", "coordinates": [ 136.701679, 36.529993 ] } },
{ "type": "Feature", "properties": { "内容": "医療法人社団浅ノ川桜ヶ丘病院【1:病院】【診療科目:内科_精神科_歯科】【一般病床数:0療養病床数:0精神病床数:457感染症病床数:0合計病床数:457】石川県金沢市観法寺町へ１７４番地", "url": "https://www.iryou.teikyouseido.mhlw.go.jp/znk-web/juminkanja/S2430/initialize?prefCd=17&kikanCd=5110029&kikanKbn=1", "url2": "http://www.e-sakurahp.com/" }, "geometry": { "type": "Point", "coordinates": [ 136.702902, 36.620712 ] } },
{ "type": "Feature", "properties": { "内容": "医療法人社団浅ノ川　浅ノ川総合病院【1:病院】【診療科目:内科_脳神経内科_循環器内科_腎臓内科_外科_脳神経外科_心臓血管外科_整形外科_形成外科_小児科_産婦人科_眼科_耳鼻いんこう科_皮膚科_泌尿器科_精神科_歯科_リハビリテーション科_放射線科_麻酔科】【一般病床数:339療養病床数:0精神病床数:0感染症病床数:0合計病床数:499】石川県金沢市小坂町中８３", "url": "https://www.iryou.teikyouseido.mhlw.go.jp/znk-web/juminkanja/S2430/initialize?prefCd=17&kikanCd=5110030&kikanKbn=1", "url2": "http://www.asanogawa-gh.or.jp/" }, "geometry": { "type": "Point", "coordinates": [ 136.677865, 36.593328 ] } },
{ "type": "Feature", "properties": { "内容": "医療法人社団浅ノ川　千木病院【1:病院】【診療科目:内科_循環器内科_皮膚科_リハビリテーション科_放射線科】【一般病床数:0療養病床数:400精神病床数:0感染症病床数:0合計病床数:400】石川県金沢市千木町へ３３番地１", "url": "https://www.iryou.teikyouseido.mhlw.go.jp/znk-web/juminkanja/S2430/initialize?prefCd=17&kikanCd=5110031&kikanKbn=1", "url2": "http://www.sengi-hp.jp" }, "geometry": { "type": "Point", "coordinates": [ 136.672912, 36.611252 ] } },
{ "type": "Feature", "properties": { "内容": "医療法人社団橘会　整形外科米澤病院【1:病院】【診療科目:内科_整形外科_リウマチ科_リハビリテーション科】【一般病床数:39療養病床数:33精神病床数:0感染症病床数:0合計病床数:72】石川県金沢市京町１番３０号", "url": "https://www.iryou.teikyouseido.mhlw.go.jp/znk-web/juminkanja/S2430/initialize?prefCd=17&kikanCd=5110033&kikanKbn=1", "url2": "http://www.yonezawa-hospital.jp/" }, "geometry": { "type": "Point", "coordinates": [ 136.655668, 36.580739 ] } },
{ "type": "Feature", "properties": { "内容": "医療法人社団青樹会青和病院【1:病院】【診療科目:精神科_神経科_心療内科】【一般病床数:0療養病床数:0精神病床数:130感染症病床数:0合計病床数:130】石川県金沢市大浦町ホ２２番地１", "url": "https://www.iryou.teikyouseido.mhlw.go.jp/znk-web/juminkanja/S2430/initialize?prefCd=17&kikanCd=5110036&kikanKbn=1", "url2": "http://www.seiwahp.or.jp" }, "geometry": { "type": "Point", "coordinates": [ 136.653528, 36.616087 ] } },
{ "type": "Feature", "properties": { "内容": "医療法人社団浅ノ川　心臓血管センター金沢循環器病院【1:病院】【診療科目:脳神経内科_循環器内科_消化器内科_腎臓内科_心臓血管外科_整形外科_リハビリテーション科_放射線科_麻酔科】【一般病床数:84療養病床数:100精神病床数:0感染症病床数:0合計病床数:184】石川県金沢市田中町は１６番地", "url": "https://www.iryou.teikyouseido.mhlw.go.jp/znk-web/juminkanja/S2430/initialize?prefCd=17&kikanCd=5110037&kikanKbn=1", "url2": "http://www.kanazawa-heart.or.jp" }, "geometry": { "type": "Point", "coordinates": [ 136.660556, 36.599462 ] } },
{ "type": "Feature", "properties": { "内容": "医療法人十全会　十全病院【1:病院】【診療科目:内科_精神科_心療内科_児童・思春期精神科】【一般病床数:0療養病床数:0精神病床数:256感染症病床数:0合計病床数:256】石川県金沢市田上本町カ４５番地１", "url": "https://www.iryou.teikyouseido.mhlw.go.jp/znk-web/juminkanja/S2430/initialize?prefCd=17&kikanCd=5110038&kikanKbn=1", "url2": "http://juzen-hospital.jp/" }, "geometry": { "type": "Point", "coordinates": [ 136.702334, 36.52934 ] } },
{ "type": "Feature", "properties": { "内容": "石川県立中央病院【1:病院】【診療科目:内科_感染症内科_血液内科_糖尿病・内分泌内科_脳神経内科_呼吸器内科_循環器内科_消化器内科_腎臓内科_腫瘍内科_女性内科_緩和ケア内科_脳神経外科_呼吸器外科_心臓血管外科_消化器外科_乳腺・内分泌外科_整形外科_形成外科_小児科_小児外科_新生児内科_産科_婦人科_眼科_耳鼻いんこう科_皮膚科_泌尿器科_歯科口腔外科_リウマチ科_リハビリテーション科_放射線診断科_放射線治療科_病理診断科_救急科_麻酔科】【一般病床数:628療養病床数:0精神病床数:0感染症病床数:0合計病床数:630】石川県金沢市鞍月東２丁目１番地", "url": "https://www.iryou.teikyouseido.mhlw.go.jp/znk-web/juminkanja/S2430/initialize?prefCd=17&kikanCd=5110039&kikanKbn=1", "url2": "http://www.pref.ishikawa.jp/ipch/" }, "geometry": { "type": "Point", "coordinates": [ 136.628804, 36.595202 ] } },
{ "type": "Feature", "properties": { "内容": "社会福祉法人恩賜財団済生会　石川県済生会金沢病院【1:病院】【診療科目:内科_脳神経内科_呼吸器内科_循環器内科_消化器内科_外科_脳神経外科_心臓血管外科_整形外科_小児科_眼科_皮膚科_泌尿器科_リウマチ科_リハビリテーション科_放射線科_麻酔科】【一般病床数:260療養病床数:0精神病床数:0感染症病床数:0合計病床数:260】石川県金沢市赤土町ニ１３－６", "url": "https://www.iryou.teikyouseido.mhlw.go.jp/znk-web/juminkanja/S2430/initialize?prefCd=17&kikanCd=5110040&kikanKbn=1", "url2": "http://www.saiseikaikanazawa.jp/index.html" }, "geometry": { "type": "Point", "coordinates": [ 136.595982, 36.582783 ] } },
{ "type": "Feature", "properties": { "内容": "医療法人社団竜山会　金沢古府記念病院【1:病院】【診療科目:呼吸器内科_循環器内科_神経内科_外科_脳神経外科_整形外科_泌尿器科_リハビリテーション科】【一般病床数:40療養病床数:0精神病床数:0感染症病床数:0合計病床数:105】石川県金沢市古府１－１５０", "url": "https://www.iryou.teikyouseido.mhlw.go.jp/znk-web/juminkanja/S2430/initialize?prefCd=17&kikanCd=5110041&kikanKbn=1", "url2": "http://www.fujii-hospital.jp" }, "geometry": { "type": "Point", "coordinates": [ 136.60762, 36.564019 ] } },
{ "type": "Feature", "properties": { "内容": "医療法人社団　安田内科病院【1:病院】【診療科目:内科_呼吸器内科_循環器内科_消化器内科_リハビリテーション科】【一般病床数:22療養病床数:48精神病床数:0感染症病床数:0合計病床数:70】石川県金沢市大豆田本町ハ６２番地", "url": "https://www.iryou.teikyouseido.mhlw.go.jp/znk-web/juminkanja/S2430/initialize?prefCd=17&kikanCd=5110042&kikanKbn=1", "url2": "http://n-yasuda.jp/index.html" }, "geometry": { "type": "Point", "coordinates": [ 136.631887, 36.568713 ] } },
{ "type": "Feature", "properties": { "内容": "医療法人明仁会　かないわ病院【1:病院】【診療科目:内科_循環器内科_精神科_心療内科】【一般病床数:0療養病床数:0精神病床数:186感染症病床数:0合計病床数:186】石川県金沢市普正寺町９－６", "url": "https://www.iryou.teikyouseido.mhlw.go.jp/znk-web/juminkanja/S2430/initialize?prefCd=17&kikanCd=5110043&kikanKbn=1", "url2": "http://kanaiwahp.com/" }, "geometry": { "type": "Point", "coordinates": [ 136.587898, 36.598628 ] } },
{ "type": "Feature", "properties": { "内容": "医療法人社団光仁会　木島病院【1:病院】【診療科目:内科_外科_肛門外科_整形外科_歯科_歯科口腔外科_リウマチ科_リハビリテーション科_麻酔科】【一般病床数:44療養病床数:0精神病床数:0感染症病床数:0合計病床数:88】石川県金沢市松寺町子４１番地１", "url": "https://www.iryou.teikyouseido.mhlw.go.jp/znk-web/juminkanja/S2430/initialize?prefCd=17&kikanCd=5110044&kikanKbn=1", "url2": "http://www.kijima-hp.or.jp/" }, "geometry": { "type": "Point", "coordinates": [ 136.653593, 36.601205 ] } },
{ "type": "Feature", "properties": { "内容": "医療法人社団博友会　金沢西病院【1:病院】【診療科目:内科_脳神経内科_循環器内科_腎臓内科_外科_脳神経外科_消化器外科_肛門外科_整形外科_形成外科_小児科_婦人科_眼科_泌尿器科_リウマチ科_リハビリテーション科】【一般病床数:92療養病床数:74精神病床数:0感染症病床数:0合計病床数:166】石川県金沢市駅西本町６丁目１５番４１号", "url": "https://www.iryou.teikyouseido.mhlw.go.jp/znk-web/juminkanja/S2430/initialize?prefCd=17&kikanCd=5110045&kikanKbn=1", "url2": "https://www.knh.or.jp/" }, "geometry": { "type": "Point", "coordinates": [ 136.625353, 36.585944 ] } },
{ "type": "Feature", "properties": { "内容": "医療法人社団映寿会　みらい病院【1:病院】【診療科目:内科_呼吸器内科_消化器内科_神経内科_漢方内科_婦人科_皮膚科_泌尿器科_アレルギー科_リハビリテーション科】【一般病床数:38療養病床数:112精神病床数:0感染症病床数:0合計病床数:150】石川県金沢市鞍月東１丁目９番地", "url": "https://www.iryou.teikyouseido.mhlw.go.jp/znk-web/juminkanja/S2430/initialize?prefCd=17&kikanCd=5110046&kikanKbn=1", "url2": "https://eijukai-mirai.jp/mirai/" }, "geometry": { "type": "Point", "coordinates": [ 136.630268, 36.594047 ] } },
{ "type": "Feature", "properties": { "内容": "町立宝達志水病院【1:病院】【診療科目:内科_外科_整形外科_眼科_皮膚科_歯科口腔外科_リハビリテーション科】【一般病床数:43療養病床数:27精神病床数:0感染症病床数:0合計病床数:70】石川県羽咋郡宝達志水町子浦ロ１１番地１", "url": "https://www.iryou.teikyouseido.mhlw.go.jp/znk-web/juminkanja/S2430/initialize?prefCd=17&kikanCd=528&kikanKbn=1", "url2": "http://hodatsushimizu-hp.jp/" }, "geometry": { "type": "Point", "coordinates": [ 136.794981, 36.867044 ] } }
]
}
