{
"type": "FeatureCollection",
"name": "geo_17_3",
"crs": { "type": "name", "properties": { "name": "urn:ogc:def:crs:OGC:1.3:CRS84" } },
"features": [
{ "type": "Feature", "properties": { "内容": "ごとう歯科クリニック【3:歯科】石川県小松市沖町ソ１００－１", "url": "https://www.iryou.teikyouseido.mhlw.go.jp/znk-web/juminkanja/S2430/initialize?prefCd=17&kikanCd=0331251&kikanKbn=3", "url2": "https://goto-dc.net" }, "geometry": { "type": "Point", "coordinates": [ 136.46622, 36.397291 ] } },
{ "type": "Feature", "properties": { "内容": "前田歯科医院【3:歯科】石川県羽咋市柳田町７３字３７番地４", "url": "https://www.iryou.teikyouseido.mhlw.go.jp/znk-web/juminkanja/S2430/initialize?prefCd=17&kikanCd=0730205&kikanKbn=3", "url2": null }, "geometry": { "type": "Point", "coordinates": [ 136.778259, 36.910617 ] } },
{ "type": "Feature", "properties": { "内容": "あまいわ歯科医院【3:歯科】石川県小松市本折町１０９", "url": "https://www.iryou.teikyouseido.mhlw.go.jp/znk-web/juminkanja/S2430/initialize?prefCd=17&kikanCd=1132001&kikanKbn=3", "url2": null }, "geometry": { "type": "Point", "coordinates": [ 136.447822, 36.396806 ] } },
{ "type": "Feature", "properties": { "内容": "粟津歯科医院【3:歯科】石川県小松市蓑輪町二６６ー１", "url": "https://www.iryou.teikyouseido.mhlw.go.jp/znk-web/juminkanja/S2430/initialize?prefCd=17&kikanCd=1132002&kikanKbn=3", "url2": null }, "geometry": { "type": "Point", "coordinates": [ 136.423556, 36.353463 ] } },
{ "type": "Feature", "properties": { "内容": "犬丸歯科医院【3:歯科】石川県小松市芦田町", "url": "https://www.iryou.teikyouseido.mhlw.go.jp/znk-web/juminkanja/S2430/initialize?prefCd=17&kikanCd=1132006&kikanKbn=3", "url2": null }, "geometry": { "type": "Point", "coordinates": [ 136.444262, 36.405387 ] } },
{ "type": "Feature", "properties": { "内容": "牛村歯科医院【3:歯科】石川県小松市土居原町４１２", "url": "https://www.iryou.teikyouseido.mhlw.go.jp/znk-web/juminkanja/S2430/initialize?prefCd=17&kikanCd=1132007&kikanKbn=3", "url2": null }, "geometry": { "type": "Point", "coordinates": [ 136.450917, 36.404634 ] } },
{ "type": "Feature", "properties": { "内容": "くろだ歯科医院【3:歯科】石川県小松市串町", "url": "https://www.iryou.teikyouseido.mhlw.go.jp/znk-web/juminkanja/S2430/initialize?prefCd=17&kikanCd=1132012&kikanKbn=3", "url2": null }, "geometry": { "type": "Point", "coordinates": [ 136.423933, 36.367648 ] } },
{ "type": "Feature", "properties": { "内容": "医療法人社団　小嶋歯科医院【3:歯科】石川県小松市今江町７ー２１７", "url": "https://www.iryou.teikyouseido.mhlw.go.jp/znk-web/juminkanja/S2430/initialize?prefCd=17&kikanCd=1132013&kikanKbn=3", "url2": "https://kojima-shika.jp" }, "geometry": { "type": "Point", "coordinates": [ 136.436355, 36.38149 ] } },
{ "type": "Feature", "properties": { "内容": "酒井歯科医院【3:歯科】石川県小松市若杉町１－３５", "url": "https://www.iryou.teikyouseido.mhlw.go.jp/znk-web/juminkanja/S2430/initialize?prefCd=17&kikanCd=1132015&kikanKbn=3", "url2": null }, "geometry": { "type": "Point", "coordinates": [ 136.483401, 36.398824 ] } },
{ "type": "Feature", "properties": { "内容": "島多歯科医院【3:歯科】石川県小松市糸町２－１４", "url": "https://www.iryou.teikyouseido.mhlw.go.jp/znk-web/juminkanja/S2430/initialize?prefCd=17&kikanCd=1132016&kikanKbn=3", "url2": null }, "geometry": { "type": "Point", "coordinates": [ 136.469228, 36.403259 ] } },
{ "type": "Feature", "properties": { "内容": "新谷歯科クリニック【3:歯科】石川県小松市園町ハ２３－１　アルプラザ小松２Ｆ", "url": "https://www.iryou.teikyouseido.mhlw.go.jp/znk-web/juminkanja/S2430/initialize?prefCd=17&kikanCd=1132017&kikanKbn=3", "url2": null }, "geometry": { "type": "Point", "coordinates": [ 136.460428, 36.406389 ] } },
{ "type": "Feature", "properties": { "内容": "医療法人社団　笑幸会　スマイル歯科【3:歯科】石川県小松市土居原町", "url": "https://www.iryou.teikyouseido.mhlw.go.jp/znk-web/juminkanja/S2430/initialize?prefCd=17&kikanCd=1132019&kikanKbn=3", "url2": "http://smile-sika.jp/" }, "geometry": { "type": "Point", "coordinates": [ 136.451925, 36.404845 ] } },
{ "type": "Feature", "properties": { "内容": "高橋歯科医院【3:歯科】石川県小松市沖町ソ１１２", "url": "https://www.iryou.teikyouseido.mhlw.go.jp/znk-web/juminkanja/S2430/initialize?prefCd=17&kikanCd=1132023&kikanKbn=3", "url2": null }, "geometry": { "type": "Point", "coordinates": [ 136.46622, 36.397291 ] } },
{ "type": "Feature", "properties": { "内容": "長歯科医院【3:歯科】石川県小松市平面町カ１８６－１", "url": "https://www.iryou.teikyouseido.mhlw.go.jp/znk-web/juminkanja/S2430/initialize?prefCd=17&kikanCd=1132024&kikanKbn=3", "url2": null }, "geometry": { "type": "Point", "coordinates": [ 136.473855, 36.418485 ] } },
{ "type": "Feature", "properties": { "内容": "医療法人社団　辻歯科医院【3:歯科】石川県小松市島田町ト１００－２", "url": "https://www.iryou.teikyouseido.mhlw.go.jp/znk-web/juminkanja/S2430/initialize?prefCd=17&kikanCd=1132025&kikanKbn=3", "url2": null }, "geometry": { "type": "Point", "coordinates": [ 136.457231, 36.420847 ] } },
{ "type": "Feature", "properties": { "内容": "土肥歯科医院【3:歯科】石川県小松市大領中町３丁目１０７番地", "url": "https://www.iryou.teikyouseido.mhlw.go.jp/znk-web/juminkanja/S2430/initialize?prefCd=17&kikanCd=1132026&kikanKbn=3", "url2": null }, "geometry": { "type": "Point", "coordinates": [ 136.447266, 36.387377 ] } },
{ "type": "Feature", "properties": { "内容": "土用下歯科医院【3:歯科】石川県小松市日の出町１丁目１１２番地", "url": "https://www.iryou.teikyouseido.mhlw.go.jp/znk-web/juminkanja/S2430/initialize?prefCd=17&kikanCd=1132027&kikanKbn=3", "url2": null }, "geometry": { "type": "Point", "coordinates": [ 136.454718, 36.39993 ] } },
{ "type": "Feature", "properties": { "内容": "長沼歯科医院【3:歯科】石川県小松市土居原町２６６", "url": "https://www.iryou.teikyouseido.mhlw.go.jp/znk-web/juminkanja/S2430/initialize?prefCd=17&kikanCd=1132030&kikanKbn=3", "url2": null }, "geometry": { "type": "Point", "coordinates": [ 136.451268, 36.400873 ] } },
{ "type": "Feature", "properties": { "内容": "中山歯科医院【3:歯科】石川県小松市龍助町９２－２", "url": "https://www.iryou.teikyouseido.mhlw.go.jp/znk-web/juminkanja/S2430/initialize?prefCd=17&kikanCd=1132031&kikanKbn=3", "url2": null }, "geometry": { "type": "Point", "coordinates": [ 136.44897, 36.403403 ] } },
{ "type": "Feature", "properties": { "内容": "医療法人　悠真美　野田歯科・矯正歯科【3:歯科】石川県小松市西軽海町１ー４５", "url": "https://www.iryou.teikyouseido.mhlw.go.jp/znk-web/juminkanja/S2430/initialize?prefCd=17&kikanCd=1132032&kikanKbn=3", "url2": "http://www.nodadental.com" }, "geometry": { "type": "Point", "coordinates": [ 136.448795, 36.405376 ] } },
{ "type": "Feature", "properties": { "内容": "医療法人社団　浜野歯科医院【3:歯科】石川県小松市白嶺町２－２３", "url": "https://www.iryou.teikyouseido.mhlw.go.jp/znk-web/juminkanja/S2430/initialize?prefCd=17&kikanCd=1132036&kikanKbn=3", "url2": "http://www.hamanodc.jp/" }, "geometry": { "type": "Point", "coordinates": [ 136.449117, 36.390201 ] } },
{ "type": "Feature", "properties": { "内容": "みわ歯科医院【3:歯科】石川県小松市園町ハ１２５アビィロードビルＡ号室", "url": "https://www.iryou.teikyouseido.mhlw.go.jp/znk-web/juminkanja/S2430/initialize?prefCd=17&kikanCd=1132040&kikanKbn=3", "url2": null }, "geometry": { "type": "Point", "coordinates": [ 136.459267, 36.405432 ] } },
{ "type": "Feature", "properties": { "内容": "医療法人社団健昇会　安井デンタルクリニック【3:歯科】石川県小松市日の出町１－１６５", "url": "https://www.iryou.teikyouseido.mhlw.go.jp/znk-web/juminkanja/S2430/initialize?prefCd=17&kikanCd=1132042&kikanKbn=3", "url2": "http://www.yasui-dental.com" }, "geometry": { "type": "Point", "coordinates": [ 136.456209, 36.40059 ] } },
{ "type": "Feature", "properties": { "内容": "山本歯科クリニック【3:歯科】石川県小松市白江町ワ１１", "url": "https://www.iryou.teikyouseido.mhlw.go.jp/znk-web/juminkanja/S2430/initialize?prefCd=17&kikanCd=1132045&kikanKbn=3", "url2": "yamamotodc504.com" }, "geometry": { "type": "Point", "coordinates": [ 136.477113, 36.410859 ] } },
{ "type": "Feature", "properties": { "内容": "たけだ歯科クリニック【3:歯科】石川県小松市下牧町己１街区１７", "url": "https://www.iryou.teikyouseido.mhlw.go.jp/znk-web/juminkanja/S2430/initialize?prefCd=17&kikanCd=1132048&kikanKbn=3", "url2": "http://www.takeda-dental.net" }, "geometry": { "type": "Point", "coordinates": [ 136.439647, 36.408232 ] } },
{ "type": "Feature", "properties": { "内容": "杉本歯科医院【3:歯科】石川県能美市大成町２－７７", "url": "https://www.iryou.teikyouseido.mhlw.go.jp/znk-web/juminkanja/S2430/initialize?prefCd=17&kikanCd=1133051&kikanKbn=3", "url2": null }, "geometry": { "type": "Point", "coordinates": [ 136.464647, 36.448343 ] } },
{ "type": "Feature", "properties": { "内容": "医療法人社団　しおむら歯科医院【3:歯科】石川県能美市寺井町ロ４３－１", "url": "https://www.iryou.teikyouseido.mhlw.go.jp/znk-web/juminkanja/S2430/initialize?prefCd=17&kikanCd=1133053&kikanKbn=3", "url2": null }, "geometry": { "type": "Point", "coordinates": [ 136.490678, 36.44401 ] } },
{ "type": "Feature", "properties": { "内容": "吉光歯科医院【3:歯科】石川県能美市粟生町ソ５７", "url": "https://www.iryou.teikyouseido.mhlw.go.jp/znk-web/juminkanja/S2430/initialize?prefCd=17&kikanCd=1133057&kikanKbn=3", "url2": "https//ydcjp.com" }, "geometry": { "type": "Point", "coordinates": [ 136.508193, 36.456652 ] } },
{ "type": "Feature", "properties": { "内容": "塩村歯科クリニック【3:歯科】石川県能美市辰口町", "url": "https://www.iryou.teikyouseido.mhlw.go.jp/znk-web/juminkanja/S2430/initialize?prefCd=17&kikanCd=1133058&kikanKbn=3", "url2": "http://sdcint.livedoor.blog/" }, "geometry": { "type": "Point", "coordinates": [ 136.546637, 36.443009 ] } },
{ "type": "Feature", "properties": { "内容": "川北歯科医院【3:歯科】石川県能美郡川北町壱ツ屋１６３－３", "url": "https://www.iryou.teikyouseido.mhlw.go.jp/znk-web/juminkanja/S2430/initialize?prefCd=17&kikanCd=1134061&kikanKbn=3", "url2": null }, "geometry": { "type": "Point", "coordinates": [ 136.54466, 36.468358 ] } },
{ "type": "Feature", "properties": { "内容": "くぼた歯科医院【3:歯科】石川県能美郡川北町田子島コ１２５－１", "url": "https://www.iryou.teikyouseido.mhlw.go.jp/znk-web/juminkanja/S2430/initialize?prefCd=17&kikanCd=1134062&kikanKbn=3", "url2": null }, "geometry": { "type": "Point", "coordinates": [ 136.51669, 36.476843 ] } },
{ "type": "Feature", "properties": { "内容": "村上歯科クリニック【3:歯科】石川県能美郡川北町山田先出", "url": "https://www.iryou.teikyouseido.mhlw.go.jp/znk-web/juminkanja/S2430/initialize?prefCd=17&kikanCd=1134063&kikanKbn=3", "url2": null }, "geometry": { "type": "Point", "coordinates": [ 136.548174, 36.467231 ] } },
{ "type": "Feature", "properties": { "内容": "今村歯科医院【3:歯科】石川県加賀市山中温泉湯の本町ク１３－１", "url": "https://www.iryou.teikyouseido.mhlw.go.jp/znk-web/juminkanja/S2430/initialize?prefCd=17&kikanCd=1231007&kikanKbn=3", "url2": null }, "geometry": { "type": "Point", "coordinates": [ 136.373895, 36.248708 ] } },
{ "type": "Feature", "properties": { "内容": "塚本歯科医院【3:歯科】石川県加賀市大聖寺八間道", "url": "https://www.iryou.teikyouseido.mhlw.go.jp/znk-web/juminkanja/S2430/initialize?prefCd=17&kikanCd=1231008&kikanKbn=3", "url2": null }, "geometry": { "type": "Point", "coordinates": [ 136.310804, 36.308745 ] } },
{ "type": "Feature", "properties": { "内容": "楠沢歯科医院【3:歯科】石川県加賀市片山津温泉乙１１－２１－１", "url": "https://www.iryou.teikyouseido.mhlw.go.jp/znk-web/juminkanja/S2430/initialize?prefCd=17&kikanCd=1231010&kikanKbn=3", "url2": null }, "geometry": { "type": "Point", "coordinates": [ 136.36709, 36.344042 ] } },
{ "type": "Feature", "properties": { "内容": "医療法人ＴＤＣ　土田歯科医院【3:歯科】石川県加賀市大聖寺仲町１５", "url": "https://www.iryou.teikyouseido.mhlw.go.jp/znk-web/juminkanja/S2430/initialize?prefCd=17&kikanCd=1231012&kikanKbn=3", "url2": "http://www.tsuchida-shika.com" }, "geometry": { "type": "Point", "coordinates": [ 136.311327, 36.308149 ] } },
{ "type": "Feature", "properties": { "内容": "サン歯科クリニック【3:歯科】石川県加賀市大聖寺南町ホ２８番地の３", "url": "https://www.iryou.teikyouseido.mhlw.go.jp/znk-web/juminkanja/S2430/initialize?prefCd=17&kikanCd=1231017&kikanKbn=3", "url2": null }, "geometry": { "type": "Point", "coordinates": [ 136.313438, 36.302062 ] } },
{ "type": "Feature", "properties": { "内容": "なかみち歯科【3:歯科】石川県加賀市山代温泉南町２７－７", "url": "https://www.iryou.teikyouseido.mhlw.go.jp/znk-web/juminkanja/S2430/initialize?prefCd=17&kikanCd=1231018&kikanKbn=3", "url2": null }, "geometry": { "type": "Point", "coordinates": [ 136.356343, 36.281947 ] } },
{ "type": "Feature", "properties": { "内容": "大神歯科医院【3:歯科】石川県加賀市小菅波町２－６０－２", "url": "https://www.iryou.teikyouseido.mhlw.go.jp/znk-web/juminkanja/S2430/initialize?prefCd=17&kikanCd=1231021&kikanKbn=3", "url2": "https://www.odc-dental.com/" }, "geometry": { "type": "Point", "coordinates": [ 136.348432, 36.316802 ] } },
{ "type": "Feature", "properties": { "内容": "かとうクリニック【3:歯科】石川県加賀市山代温泉北部２－２５", "url": "https://www.iryou.teikyouseido.mhlw.go.jp/znk-web/juminkanja/S2430/initialize?prefCd=17&kikanCd=1231025&kikanKbn=3", "url2": "k-iic.jp" }, "geometry": { "type": "Point", "coordinates": [ 136.359035, 36.297606 ] } },
{ "type": "Feature", "properties": { "内容": "歯科クドウ・クリニック【3:歯科】石川県加賀市大聖寺上木町ト１０番１号", "url": "https://www.iryou.teikyouseido.mhlw.go.jp/znk-web/juminkanja/S2430/initialize?prefCd=17&kikanCd=1231028&kikanKbn=3", "url2": null }, "geometry": { "type": "Point", "coordinates": [ 136.273808, 36.300475 ] } },
{ "type": "Feature", "properties": { "内容": "ばんどう歯科医院【3:歯科】石川県金沢市横山町８番４７号", "url": "https://www.iryou.teikyouseido.mhlw.go.jp/znk-web/juminkanja/S2430/initialize?prefCd=17&kikanCd=1730133921&kikanKbn=3", "url2": null }, "geometry": { "type": "Point", "coordinates": [ 136.669589, 36.565047 ] } },
{ "type": "Feature", "properties": { "内容": "みやした歯科医院【3:歯科】石川県七尾市石崎町香島２丁目７８番地", "url": "https://www.iryou.teikyouseido.mhlw.go.jp/znk-web/juminkanja/S2430/initialize?prefCd=17&kikanCd=1730230438&kikanKbn=3", "url2": null }, "geometry": { "type": "Point", "coordinates": [ 136.925931, 37.081978 ] } },
{ "type": "Feature", "properties": { "内容": "アル・プラザ歯科【3:歯科】石川県加賀市作見町ル２５番１アビオシティ加賀１Ｆ", "url": "https://www.iryou.teikyouseido.mhlw.go.jp/znk-web/juminkanja/S2430/initialize?prefCd=17&kikanCd=1730630454&kikanKbn=3", "url2": null }, "geometry": { "type": "Point", "coordinates": [ 136.358322, 36.316774 ] } },
{ "type": "Feature", "properties": { "内容": "北本歯科医院【3:歯科】石川県能美市大成町ト１１４", "url": "https://www.iryou.teikyouseido.mhlw.go.jp/znk-web/juminkanja/S2430/initialize?prefCd=17&kikanCd=1732330012&kikanKbn=3", "url2": null }, "geometry": { "type": "Point", "coordinates": [ 136.460387, 36.451805 ] } },
{ "type": "Feature", "properties": { "内容": "佐々木歯科医院【3:歯科】石川県白山市茶屋２－５３－３", "url": "https://www.iryou.teikyouseido.mhlw.go.jp/znk-web/juminkanja/S2430/initialize?prefCd=17&kikanCd=2130008&kikanKbn=3", "url2": "https://www.sasakishika.jp" }, "geometry": { "type": "Point", "coordinates": [ 136.560908, 36.519582 ] } },
{ "type": "Feature", "properties": { "内容": "しいあい歯科医院【3:歯科】石川県白山市笠間町９５８－１", "url": "https://www.iryou.teikyouseido.mhlw.go.jp/znk-web/juminkanja/S2430/initialize?prefCd=17&kikanCd=2130009&kikanKbn=3", "url2": null }, "geometry": { "type": "Point", "coordinates": [ 136.52877, 36.504407 ] } },
{ "type": "Feature", "properties": { "内容": "なかむら歯科クリニック【3:歯科】石川県白山市荒屋柏野町５６２－１", "url": "https://www.iryou.teikyouseido.mhlw.go.jp/znk-web/juminkanja/S2430/initialize?prefCd=17&kikanCd=2130013&kikanKbn=3", "url2": null }, "geometry": { "type": "Point", "coordinates": [ 136.532518, 36.501845 ] } },
{ "type": "Feature", "properties": { "内容": "なりのぼう歯科口腔外科クリニック【3:歯科】石川県白山市北安田西１丁目１９番地", "url": "https://www.iryou.teikyouseido.mhlw.go.jp/znk-web/juminkanja/S2430/initialize?prefCd=17&kikanCd=2130014&kikanKbn=3", "url2": "http://www.nari-dental.com" }, "geometry": { "type": "Point", "coordinates": [ 136.545854, 36.525703 ] } },
{ "type": "Feature", "properties": { "内容": "東山歯科医院【3:歯科】石川県白山市田中町６２－５", "url": "https://www.iryou.teikyouseido.mhlw.go.jp/znk-web/juminkanja/S2430/initialize?prefCd=17&kikanCd=2130017&kikanKbn=3", "url2": null }, "geometry": { "type": "Point", "coordinates": [ 136.586473, 36.531408 ] } },
{ "type": "Feature", "properties": { "内容": "みなみ歯科クリニック【3:歯科】石川県白山市三幸町", "url": "https://www.iryou.teikyouseido.mhlw.go.jp/znk-web/juminkanja/S2430/initialize?prefCd=17&kikanCd=2130020&kikanKbn=3", "url2": null }, "geometry": { "type": "Point", "coordinates": [ 136.577729, 36.51221 ] } },
{ "type": "Feature", "properties": { "内容": "医療法人社団　吉本歯科医院【3:歯科】石川県白山市東新町６５ー１", "url": "https://www.iryou.teikyouseido.mhlw.go.jp/znk-web/juminkanja/S2430/initialize?prefCd=17&kikanCd=2130022&kikanKbn=3", "url2": null }, "geometry": { "type": "Point", "coordinates": [ 136.567129, 36.52354 ] } },
{ "type": "Feature", "properties": { "内容": "江尻歯科医院【3:歯科】石川県野々市市稲荷", "url": "https://www.iryou.teikyouseido.mhlw.go.jp/znk-web/juminkanja/S2430/initialize?prefCd=17&kikanCd=2130025&kikanKbn=3", "url2": "https://www.ejident.com" }, "geometry": { "type": "Point", "coordinates": [ 136.603699, 36.536616 ] } },
{ "type": "Feature", "properties": { "内容": "扇が丘歯科医院【3:歯科】石川県野々市市扇が丘１９－３６ワイズビルズ１Ｆ", "url": "https://www.iryou.teikyouseido.mhlw.go.jp/znk-web/juminkanja/S2430/initialize?prefCd=17&kikanCd=2130026&kikanKbn=3", "url2": null }, "geometry": { "type": "Point", "coordinates": [ 136.623605, 36.526277 ] } },
{ "type": "Feature", "properties": { "内容": "ぎゃくし歯科医院【3:歯科】石川県野々市市新庄６丁目４０８", "url": "https://www.iryou.teikyouseido.mhlw.go.jp/znk-web/juminkanja/S2430/initialize?prefCd=17&kikanCd=2130028&kikanKbn=3", "url2": "www.gyakushi-dc.com" }, "geometry": { "type": "Point", "coordinates": [ 136.608054, 36.5082 ] } },
{ "type": "Feature", "properties": { "内容": "ののいち歯科クリニック【3:歯科】石川県野々市市本町３丁目９番１２号", "url": "https://www.iryou.teikyouseido.mhlw.go.jp/znk-web/juminkanja/S2430/initialize?prefCd=17&kikanCd=2130032&kikanKbn=3", "url2": "http://www.nonoden.jp" }, "geometry": { "type": "Point", "coordinates": [ 136.616653, 36.532007 ] } },
{ "type": "Feature", "properties": { "内容": "医療法人社団　祥幸会　ふじい歯科クリニック【3:歯科】石川県野々市市御経塚３－２１０", "url": "https://www.iryou.teikyouseido.mhlw.go.jp/znk-web/juminkanja/S2430/initialize?prefCd=17&kikanCd=2130036&kikanKbn=3", "url2": "http://fujii-dentaloffice.com/" }, "geometry": { "type": "Point", "coordinates": [ 136.598385, 36.548513 ] } },
{ "type": "Feature", "properties": { "内容": "ふじた歯科クリニック【3:歯科】石川県野々市市下林４丁目５６５−２", "url": "https://www.iryou.teikyouseido.mhlw.go.jp/znk-web/juminkanja/S2430/initialize?prefCd=17&kikanCd=2130037&kikanKbn=3", "url2": null }, "geometry": { "type": "Point", "coordinates": [ 136.606107, 36.523087 ] } },
{ "type": "Feature", "properties": { "内容": "医療法人社団　真舘歯科医院【3:歯科】石川県野々市市御経塚", "url": "https://www.iryou.teikyouseido.mhlw.go.jp/znk-web/juminkanja/S2430/initialize?prefCd=17&kikanCd=2130039&kikanKbn=3", "url2": null }, "geometry": { "type": "Point", "coordinates": [ 136.601394, 36.546226 ] } },
{ "type": "Feature", "properties": { "内容": "かわはら歯科医院【3:歯科】石川県野々市市藤平田１丁目４６６番地", "url": "https://www.iryou.teikyouseido.mhlw.go.jp/znk-web/juminkanja/S2430/initialize?prefCd=17&kikanCd=2130043&kikanKbn=3", "url2": "https://kawaharadc.com/" }, "geometry": { "type": "Point", "coordinates": [ 136.607588, 36.517041 ] } },
{ "type": "Feature", "properties": { "内容": "奥谷歯科医院【3:歯科】石川県白山市西米光町チ８３番地４", "url": "https://www.iryou.teikyouseido.mhlw.go.jp/znk-web/juminkanja/S2430/initialize?prefCd=17&kikanCd=2130045&kikanKbn=3", "url2": null }, "geometry": { "type": "Point", "coordinates": [ 136.500825, 36.49262 ] } },
{ "type": "Feature", "properties": { "内容": "世戸歯科クリニック【3:歯科】石川県白山市美川中町ソ２６", "url": "https://www.iryou.teikyouseido.mhlw.go.jp/znk-web/juminkanja/S2430/initialize?prefCd=17&kikanCd=2130046&kikanKbn=3", "url2": null }, "geometry": { "type": "Point", "coordinates": [ 136.488047, 36.486246 ] } },
{ "type": "Feature", "properties": { "内容": "水野歯科浜町クリニック【3:歯科】石川県白山市美川浜町タ３７", "url": "https://www.iryou.teikyouseido.mhlw.go.jp/znk-web/juminkanja/S2430/initialize?prefCd=17&kikanCd=2130048&kikanKbn=3", "url2": "mizuno-oral.com" }, "geometry": { "type": "Point", "coordinates": [ 136.491019, 36.488489 ] } },
{ "type": "Feature", "properties": { "内容": "木戸歯科医院【3:歯科】石川県白山市鶴来本町三丁目ヲ７０", "url": "https://www.iryou.teikyouseido.mhlw.go.jp/znk-web/juminkanja/S2430/initialize?prefCd=17&kikanCd=2130049&kikanKbn=3", "url2": "http://www.kido-shika.jp/index.html" }, "geometry": { "type": "Point", "coordinates": [ 136.625832, 36.449935 ] } },
{ "type": "Feature", "properties": { "内容": "津田歯科医院【3:歯科】石川県白山市鶴来本町４ー５ー４", "url": "https://www.iryou.teikyouseido.mhlw.go.jp/znk-web/juminkanja/S2430/initialize?prefCd=17&kikanCd=2130051&kikanKbn=3", "url2": null }, "geometry": { "type": "Point", "coordinates": [ 136.624931, 36.452226 ] } },
{ "type": "Feature", "properties": { "内容": "白峰村歯科診療所谷歯科医院【3:歯科】石川県白山市白峰ハ１５７番１地", "url": "https://www.iryou.teikyouseido.mhlw.go.jp/znk-web/juminkanja/S2430/initialize?prefCd=17&kikanCd=2130055&kikanKbn=3", "url2": null }, "geometry": { "type": "Point", "coordinates": [ 136.624322, 36.17681 ] } },
{ "type": "Feature", "properties": { "内容": "あかつき歯科医院【3:歯科】石川県河北郡津幡町横浜い４３－１", "url": "https://www.iryou.teikyouseido.mhlw.go.jp/znk-web/juminkanja/S2430/initialize?prefCd=17&kikanCd=2230001&kikanKbn=3", "url2": "http://www.akatsuki-dc.jp" }, "geometry": { "type": "Point", "coordinates": [ 136.733984, 36.666947 ] } },
{ "type": "Feature", "properties": { "内容": "新本歯科医院【3:歯科】石川県河北郡津幡町横浜へ３５－３", "url": "https://www.iryou.teikyouseido.mhlw.go.jp/znk-web/juminkanja/S2430/initialize?prefCd=17&kikanCd=2230006&kikanKbn=3", "url2": null }, "geometry": { "type": "Point", "coordinates": [ 136.728705, 36.665437 ] } },
{ "type": "Feature", "properties": { "内容": "すみよし歯科医院【3:歯科】石川県河北郡津幡町庄ロ１０９－２", "url": "https://www.iryou.teikyouseido.mhlw.go.jp/znk-web/juminkanja/S2430/initialize?prefCd=17&kikanCd=2230007&kikanKbn=3", "url2": null }, "geometry": { "type": "Point", "coordinates": [ 136.727392, 36.674279 ] } },
{ "type": "Feature", "properties": { "内容": "つだ歯科医院【3:歯科】石川県河北郡津幡町能瀬ニ３－３", "url": "https://www.iryou.teikyouseido.mhlw.go.jp/znk-web/juminkanja/S2430/initialize?prefCd=17&kikanCd=2230008&kikanKbn=3", "url2": null }, "geometry": { "type": "Point", "coordinates": [ 136.721506, 36.690137 ] } },
{ "type": "Feature", "properties": { "内容": "なかじま歯科【3:歯科】石川県河北郡津幡町北中条６－６３", "url": "https://www.iryou.teikyouseido.mhlw.go.jp/znk-web/juminkanja/S2430/initialize?prefCd=17&kikanCd=2230009&kikanKbn=3", "url2": null }, "geometry": { "type": "Point", "coordinates": [ 136.728601, 36.661263 ] } },
{ "type": "Feature", "properties": { "内容": "医療法人社団のぞみ歯科医院【3:歯科】石川県河北郡津幡町潟端４５０－６", "url": "https://www.iryou.teikyouseido.mhlw.go.jp/znk-web/juminkanja/S2430/initialize?prefCd=17&kikanCd=2230010&kikanKbn=3", "url2": "https://www.dental-nozomi.com/" }, "geometry": { "type": "Point", "coordinates": [ 136.709299, 36.655298 ] } },
{ "type": "Feature", "properties": { "内容": "粟倉歯科医院【3:歯科】石川県河北郡内灘町緑台１－２４５－３", "url": "https://www.iryou.teikyouseido.mhlw.go.jp/znk-web/juminkanja/S2430/initialize?prefCd=17&kikanCd=2230012&kikanKbn=3", "url2": null }, "geometry": { "type": "Point", "coordinates": [ 136.630485, 36.633879 ] } },
{ "type": "Feature", "properties": { "内容": "医療法人社団　中本歯科医院【3:歯科】石川県河北郡内灘町アカシア１－２８", "url": "https://www.iryou.teikyouseido.mhlw.go.jp/znk-web/juminkanja/S2430/initialize?prefCd=17&kikanCd=2230013&kikanKbn=3", "url2": null }, "geometry": { "type": "Point", "coordinates": [ 136.635696, 36.632618 ] } },
{ "type": "Feature", "properties": { "内容": "北歯科医院【3:歯科】石川県河北郡内灘町鶴ケ丘４－１ー３１１", "url": "https://www.iryou.teikyouseido.mhlw.go.jp/znk-web/juminkanja/S2430/initialize?prefCd=17&kikanCd=2230014&kikanKbn=3", "url2": null }, "geometry": { "type": "Point", "coordinates": [ 136.639865, 36.644513 ] } },
{ "type": "Feature", "properties": { "内容": "小島歯科医院【3:歯科】石川県河北郡内灘町アカシア２−５", "url": "https://www.iryou.teikyouseido.mhlw.go.jp/znk-web/juminkanja/S2430/initialize?prefCd=17&kikanCd=2230015&kikanKbn=3", "url2": "https://kojima-shika.jp" }, "geometry": { "type": "Point", "coordinates": [ 136.635434, 36.635215 ] } },
{ "type": "Feature", "properties": { "内容": "白石歯科医院【3:歯科】石川県河北郡内灘町向粟崎５－３１", "url": "https://www.iryou.teikyouseido.mhlw.go.jp/znk-web/juminkanja/S2430/initialize?prefCd=17&kikanCd=2230016&kikanKbn=3", "url2": "https://shiraishi-dc.net/" }, "geometry": { "type": "Point", "coordinates": [ 136.637027, 36.638922 ] } },
{ "type": "Feature", "properties": { "内容": "なかみち歯科クリニック【3:歯科】石川県河北郡内灘町旭ヶ丘１１１", "url": "https://www.iryou.teikyouseido.mhlw.go.jp/znk-web/juminkanja/S2430/initialize?prefCd=17&kikanCd=2230017&kikanKbn=3", "url2": null }, "geometry": { "type": "Point", "coordinates": [ 136.631963, 36.629763 ] } },
{ "type": "Feature", "properties": { "内容": "ふなもと歯科医院【3:歯科】石川県河北郡内灘町大根布１－１０１", "url": "https://www.iryou.teikyouseido.mhlw.go.jp/znk-web/juminkanja/S2430/initialize?prefCd=17&kikanCd=2230018&kikanKbn=3", "url2": null }, "geometry": { "type": "Point", "coordinates": [ 136.647159, 36.647584 ] } },
{ "type": "Feature", "properties": { "内容": "よしだ歯科医院【3:歯科】石川県河北郡内灘町大清台３２９番地", "url": "https://www.iryou.teikyouseido.mhlw.go.jp/znk-web/juminkanja/S2430/initialize?prefCd=17&kikanCd=2230019&kikanKbn=3", "url2": null }, "geometry": { "type": "Point", "coordinates": [ 136.643425, 36.649308 ] } },
{ "type": "Feature", "properties": { "内容": "医療法人社団　アネスティ　浜田歯科クリニック【3:歯科】石川県かほく市宇野気チ１１２", "url": "https://www.iryou.teikyouseido.mhlw.go.jp/znk-web/juminkanja/S2430/initialize?prefCd=17&kikanCd=2230022&kikanKbn=3", "url2": null }, "geometry": { "type": "Point", "coordinates": [ 136.700966, 36.721433 ] } },
{ "type": "Feature", "properties": { "内容": "医療法人社団　ふたみ歯科【3:歯科】石川県かほく市木津イ７５－６", "url": "https://www.iryou.teikyouseido.mhlw.go.jp/znk-web/juminkanja/S2430/initialize?prefCd=17&kikanCd=2230029&kikanKbn=3", "url2": null }, "geometry": { "type": "Point", "coordinates": [ 136.709085, 36.746084 ] } },
{ "type": "Feature", "properties": { "内容": "マダチ歯科クリニック【3:歯科】石川県白山市八ツ矢町４６７－１", "url": "https://www.iryou.teikyouseido.mhlw.go.jp/znk-web/juminkanja/S2430/initialize?prefCd=17&kikanCd=2230394&kikanKbn=3", "url2": null }, "geometry": { "type": "Point", "coordinates": [ 136.57346, 36.527083 ] } },
{ "type": "Feature", "properties": { "内容": "やまもと歯科医院【3:歯科】石川県金沢市駅西本町３－１－５", "url": "https://www.iryou.teikyouseido.mhlw.go.jp/znk-web/juminkanja/S2430/initialize?prefCd=17&kikanCd=255&kikanKbn=3", "url2": null }, "geometry": { "type": "Point", "coordinates": [ 136.635286, 36.582348 ] } },
{ "type": "Feature", "properties": { "内容": "なおき歯科クリニック【3:歯科】石川県羽咋市鶴多町亀田１５－１", "url": "https://www.iryou.teikyouseido.mhlw.go.jp/znk-web/juminkanja/S2430/initialize?prefCd=17&kikanCd=275&kikanKbn=3", "url2": "https://www.naokishika-clinic.info/" }, "geometry": { "type": "Point", "coordinates": [ 136.790959, 36.898187 ] } },
{ "type": "Feature", "properties": { "内容": "パールデンタルクリニック【3:歯科】石川県小松市細工町４７", "url": "https://www.iryou.teikyouseido.mhlw.go.jp/znk-web/juminkanja/S2430/initialize?prefCd=17&kikanCd=276&kikanKbn=3", "url2": "http://www.pearldental.jp/" }, "geometry": { "type": "Point", "coordinates": [ 136.451269, 36.408057 ] } },
{ "type": "Feature", "properties": { "内容": "医療法人社団　ただ歯科クリニック【3:歯科】石川県金沢市須崎町甲１７番地", "url": "https://www.iryou.teikyouseido.mhlw.go.jp/znk-web/juminkanja/S2430/initialize?prefCd=17&kikanCd=294&kikanKbn=3", "url2": "tada-dentalclinic.com" }, "geometry": { "type": "Point", "coordinates": [ 136.638646, 36.620037 ] } },
{ "type": "Feature", "properties": { "内容": "広瀬歯科医院【3:歯科】石川県加賀市片山津温泉乙３７", "url": "https://www.iryou.teikyouseido.mhlw.go.jp/znk-web/juminkanja/S2430/initialize?prefCd=17&kikanCd=302&kikanKbn=3", "url2": null }, "geometry": { "type": "Point", "coordinates": [ 136.365726, 36.345278 ] } },
{ "type": "Feature", "properties": { "内容": "島田歯科医院【3:歯科】石川県七尾市府中町１７２", "url": "https://www.iryou.teikyouseido.mhlw.go.jp/znk-web/juminkanja/S2430/initialize?prefCd=17&kikanCd=312&kikanKbn=3", "url2": null }, "geometry": { "type": "Point", "coordinates": [ 136.968115, 37.046657 ] } },
{ "type": "Feature", "properties": { "内容": "今井歯科医院【3:歯科】石川県七尾市小丸山台２丁目１１５", "url": "https://www.iryou.teikyouseido.mhlw.go.jp/znk-web/juminkanja/S2430/initialize?prefCd=17&kikanCd=3130005&kikanKbn=3", "url2": null }, "geometry": { "type": "Point", "coordinates": [ 136.953435, 37.045684 ] } },
{ "type": "Feature", "properties": { "内容": "かぶと歯科医院【3:歯科】石川県七尾市御祓町子部６－２", "url": "https://www.iryou.teikyouseido.mhlw.go.jp/znk-web/juminkanja/S2430/initialize?prefCd=17&kikanCd=3130007&kikanKbn=3", "url2": null }, "geometry": { "type": "Point", "coordinates": [ 136.963103, 37.044369 ] } },
{ "type": "Feature", "properties": { "内容": "医療法人社団　泰聖会　西野歯科医院【3:歯科】石川県七尾市七尾市矢田新町ニ部１０４番地１", "url": "https://www.iryou.teikyouseido.mhlw.go.jp/znk-web/juminkanja/S2430/initialize?prefCd=17&kikanCd=3130019&kikanKbn=3", "url2": null }, "geometry": { "type": "Point", "coordinates": [ 136.978, 37.047419 ] } },
{ "type": "Feature", "properties": { "内容": "浜岸歯科医院【3:歯科】石川県七尾市湊町", "url": "https://www.iryou.teikyouseido.mhlw.go.jp/znk-web/juminkanja/S2430/initialize?prefCd=17&kikanCd=3130021&kikanKbn=3", "url2": null }, "geometry": { "type": "Point", "coordinates": [ 136.971263, 37.04679 ] } },
{ "type": "Feature", "properties": { "内容": "春木歯科クリニック【3:歯科】石川県七尾市塗師町", "url": "https://www.iryou.teikyouseido.mhlw.go.jp/znk-web/juminkanja/S2430/initialize?prefCd=17&kikanCd=3130022&kikanKbn=3", "url2": null }, "geometry": { "type": "Point", "coordinates": [ 136.968792, 37.04473 ] } },
{ "type": "Feature", "properties": { "内容": "深尾歯科医院【3:歯科】石川県七尾市本府中町ハ部２８−１", "url": "https://www.iryou.teikyouseido.mhlw.go.jp/znk-web/juminkanja/S2430/initialize?prefCd=17&kikanCd=3130023&kikanKbn=3", "url2": null }, "geometry": { "type": "Point", "coordinates": [ 136.967703, 37.042009 ] } },
{ "type": "Feature", "properties": { "内容": "医療法人社団　朝日会　マダチ歯科医院【3:歯科】石川県七尾市飯川町１０１－７６－３３", "url": "https://www.iryou.teikyouseido.mhlw.go.jp/znk-web/juminkanja/S2430/initialize?prefCd=17&kikanCd=3130024&kikanKbn=3", "url2": null }, "geometry": { "type": "Point", "coordinates": [ 136.931888, 37.00813 ] } },
{ "type": "Feature", "properties": { "内容": "マツモト歯科医院【3:歯科】石川県七尾市御祓町ホ部２６－４", "url": "https://www.iryou.teikyouseido.mhlw.go.jp/znk-web/juminkanja/S2430/initialize?prefCd=17&kikanCd=3130025&kikanKbn=3", "url2": null }, "geometry": { "type": "Point", "coordinates": [ 136.963712, 37.043831 ] } },
{ "type": "Feature", "properties": { "内容": "三井歯科クリニック【3:歯科】石川県七尾市田鶴浜町と－３", "url": "https://www.iryou.teikyouseido.mhlw.go.jp/znk-web/juminkanja/S2430/initialize?prefCd=17&kikanCd=3130026&kikanKbn=3", "url2": null }, "geometry": { "type": "Point", "coordinates": [ 136.891866, 37.065486 ] } },
{ "type": "Feature", "properties": { "内容": "守友歯科医院【3:歯科】石川県七尾市神明町ロ部２－２９", "url": "https://www.iryou.teikyouseido.mhlw.go.jp/znk-web/juminkanja/S2430/initialize?prefCd=17&kikanCd=3130029&kikanKbn=3", "url2": null }, "geometry": { "type": "Point", "coordinates": [ 136.96559, 37.042759 ] } },
{ "type": "Feature", "properties": { "内容": "高橋歯科医院【3:歯科】石川県鹿島郡中能登町小田中ラ部１０７－１", "url": "https://www.iryou.teikyouseido.mhlw.go.jp/znk-web/juminkanja/S2430/initialize?prefCd=17&kikanCd=3130104&kikanKbn=3", "url2": null }, "geometry": { "type": "Point", "coordinates": [ 136.880025, 36.943487 ] } },
{ "type": "Feature", "properties": { "内容": "堀江歯科医院【3:歯科】石川県鹿島郡中能登町良川", "url": "https://www.iryou.teikyouseido.mhlw.go.jp/znk-web/juminkanja/S2430/initialize?prefCd=17&kikanCd=3130107&kikanKbn=3", "url2": null }, "geometry": { "type": "Point", "coordinates": [ 136.89018, 36.97648 ] } },
{ "type": "Feature", "properties": { "内容": "にしやまファミリー歯科クリニック【3:歯科】石川県加賀市山代温泉１４－４－１", "url": "https://www.iryou.teikyouseido.mhlw.go.jp/znk-web/juminkanja/S2430/initialize?prefCd=17&kikanCd=314&kikanKbn=3", "url2": null }, "geometry": { "type": "Point", "coordinates": [ 136.353876, 36.292688 ] } },
{ "type": "Feature", "properties": { "内容": "岩原歯科医院【3:歯科】石川県羽咋市飯山町ト１７", "url": "https://www.iryou.teikyouseido.mhlw.go.jp/znk-web/juminkanja/S2430/initialize?prefCd=17&kikanCd=3230002&kikanKbn=3", "url2": null }, "geometry": { "type": "Point", "coordinates": [ 136.824768, 36.900869 ] } },
{ "type": "Feature", "properties": { "内容": "柴田歯科医院【3:歯科】石川県羽咋市旭町コ１１４番地３", "url": "https://www.iryou.teikyouseido.mhlw.go.jp/znk-web/juminkanja/S2430/initialize?prefCd=17&kikanCd=3230004&kikanKbn=3", "url2": null }, "geometry": { "type": "Point", "coordinates": [ 136.778085, 36.896628 ] } },
{ "type": "Feature", "properties": { "内容": "高井歯科医院【3:歯科】石川県羽咋市的場町的場５８番地２", "url": "https://www.iryou.teikyouseido.mhlw.go.jp/znk-web/juminkanja/S2430/initialize?prefCd=17&kikanCd=3230006&kikanKbn=3", "url2": null }, "geometry": { "type": "Point", "coordinates": [ 136.779941, 36.899288 ] } },
{ "type": "Feature", "properties": { "内容": "医療法人社団医心会吉田歯科医院【3:歯科】石川県羽咋市松ケ下町", "url": "https://www.iryou.teikyouseido.mhlw.go.jp/znk-web/juminkanja/S2430/initialize?prefCd=17&kikanCd=3230013&kikanKbn=3", "url2": null }, "geometry": { "type": "Point", "coordinates": [ 136.786088, 36.89184 ] } },
{ "type": "Feature", "properties": { "内容": "鶴沢歯科医院【3:歯科】石川県羽咋郡志賀町富来地頭町８の１９６", "url": "https://www.iryou.teikyouseido.mhlw.go.jp/znk-web/juminkanja/S2430/initialize?prefCd=17&kikanCd=3230015&kikanKbn=3", "url2": null }, "geometry": { "type": "Point", "coordinates": [ 136.731334, 37.137851 ] } },
{ "type": "Feature", "properties": { "内容": "立浦歯科医院【3:歯科】石川県羽咋郡宝達志水町小川２－２０ー３", "url": "https://www.iryou.teikyouseido.mhlw.go.jp/znk-web/juminkanja/S2430/initialize?prefCd=17&kikanCd=3230023&kikanKbn=3", "url2": null }, "geometry": { "type": "Point", "coordinates": [ 136.761589, 36.822473 ] } },
{ "type": "Feature", "properties": { "内容": "金澤むさし総合歯科・矯正歯科クリニック【3:歯科】石川県金沢市武蔵町１－１４", "url": "https://www.iryou.teikyouseido.mhlw.go.jp/znk-web/juminkanja/S2430/initialize?prefCd=17&kikanCd=362&kikanKbn=3", "url2": "https://ki-dc.com/" }, "geometry": { "type": "Point", "coordinates": [ 136.654672, 36.57091 ] } },
{ "type": "Feature", "properties": { "内容": "おおせと歯科クリニック【3:歯科】石川県鳳珠郡穴水町字川島ヨ６５番１", "url": "https://www.iryou.teikyouseido.mhlw.go.jp/znk-web/juminkanja/S2430/initialize?prefCd=17&kikanCd=377&kikanKbn=3", "url2": null }, "geometry": { "type": "Point", "coordinates": [ 136.906867, 37.2338 ] } },
{ "type": "Feature", "properties": { "内容": "ほしば歯科クリニック【3:歯科】石川県金沢市横山町", "url": "https://www.iryou.teikyouseido.mhlw.go.jp/znk-web/juminkanja/S2430/initialize?prefCd=17&kikanCd=380&kikanKbn=3", "url2": null }, "geometry": { "type": "Point", "coordinates": [ 136.667665, 36.565201 ] } },
{ "type": "Feature", "properties": { "内容": "クラウン歯科クリニック【3:歯科】石川県金沢市新神田５丁目３９番地", "url": "https://www.iryou.teikyouseido.mhlw.go.jp/znk-web/juminkanja/S2430/initialize?prefCd=17&kikanCd=407&kikanKbn=3", "url2": "http://www.crown-dent.com/" }, "geometry": { "type": "Point", "coordinates": [ 136.627529, 36.5626 ] } },
{ "type": "Feature", "properties": { "内容": "ジョム・デンタルクリニック【3:歯科】石川県金沢市小坂町西１６－１４", "url": "https://www.iryou.teikyouseido.mhlw.go.jp/znk-web/juminkanja/S2430/initialize?prefCd=17&kikanCd=408&kikanKbn=3", "url2": "http://www.jomdental.com" }, "geometry": { "type": "Point", "coordinates": [ 136.670773, 36.590647 ] } },
{ "type": "Feature", "properties": { "内容": "デンタルケア南條歯科【3:歯科】石川県金沢市小坂町南６５０", "url": "https://www.iryou.teikyouseido.mhlw.go.jp/znk-web/juminkanja/S2430/initialize?prefCd=17&kikanCd=409&kikanKbn=3", "url2": "http://www.nanjo-shika.com/index.html" }, "geometry": { "type": "Point", "coordinates": [ 136.678984, 36.587029 ] } },
{ "type": "Feature", "properties": { "内容": "医療法人社団白根会　白根歯科クリニック【3:歯科】石川県金沢市伏見新町２７６番１", "url": "https://www.iryou.teikyouseido.mhlw.go.jp/znk-web/juminkanja/S2430/initialize?prefCd=17&kikanCd=412&kikanKbn=3", "url2": "http://care4618.com" }, "geometry": { "type": "Point", "coordinates": [ 136.650165, 36.53449 ] } },
{ "type": "Feature", "properties": { "内容": "医療法人　真俊会　笹谷歯科医院【3:歯科】石川県輪島市河井町３－１６７", "url": "https://www.iryou.teikyouseido.mhlw.go.jp/znk-web/juminkanja/S2430/initialize?prefCd=17&kikanCd=4130004&kikanKbn=3", "url2": "http://sasatani-dc.com/" }, "geometry": { "type": "Point", "coordinates": [ 136.905125, 37.392572 ] } },
{ "type": "Feature", "properties": { "内容": "ながい歯科医院【3:歯科】石川県輪島市鳳至町畠田３－７５", "url": "https://www.iryou.teikyouseido.mhlw.go.jp/znk-web/juminkanja/S2430/initialize?prefCd=17&kikanCd=4130005&kikanKbn=3", "url2": null }, "geometry": { "type": "Point", "coordinates": [ 136.897188, 37.393682 ] } },
{ "type": "Feature", "properties": { "内容": "松原歯科医院【3:歯科】石川県輪島市門前町清水", "url": "https://www.iryou.teikyouseido.mhlw.go.jp/znk-web/juminkanja/S2430/initialize?prefCd=17&kikanCd=4130007&kikanKbn=3", "url2": null }, "geometry": { "type": "Point", "coordinates": [ 136.765113, 37.289064 ] } },
{ "type": "Feature", "properties": { "内容": "医療法人社団　マルト歯科医院【3:歯科】石川県輪島市門前町走出２の９０の４", "url": "https://www.iryou.teikyouseido.mhlw.go.jp/znk-web/juminkanja/S2430/initialize?prefCd=17&kikanCd=4130008&kikanKbn=3", "url2": null }, "geometry": { "type": "Point", "coordinates": [ 136.770097, 37.290255 ] } },
{ "type": "Feature", "properties": { "内容": "まない歯科医院【3:歯科】石川県鳳珠郡穴水町大町ろ－２１－２", "url": "https://www.iryou.teikyouseido.mhlw.go.jp/znk-web/juminkanja/S2430/initialize?prefCd=17&kikanCd=4130016&kikanKbn=3", "url2": null }, "geometry": { "type": "Point", "coordinates": [ 136.90882, 37.225929 ] } },
{ "type": "Feature", "properties": { "内容": "もろはし歯科【3:歯科】石川県鳳珠郡穴水町沖波ホ－２１６", "url": "https://www.iryou.teikyouseido.mhlw.go.jp/znk-web/juminkanja/S2430/initialize?prefCd=17&kikanCd=4130017&kikanKbn=3", "url2": null }, "geometry": { "type": "Point", "coordinates": [ 137.057672, 37.211257 ] } },
{ "type": "Feature", "properties": { "内容": "医療法人社団　美能里会　はしもとデンタルクリニック【3:歯科】石川県鳳珠郡能登町崎山３－２０５", "url": "https://www.iryou.teikyouseido.mhlw.go.jp/znk-web/juminkanja/S2430/initialize?prefCd=17&kikanCd=4130023&kikanKbn=3", "url2": null }, "geometry": { "type": "Point", "coordinates": [ 137.144715, 37.303636 ] } },
{ "type": "Feature", "properties": { "内容": "持木歯科医院【3:歯科】石川県鳳珠郡能登町宇出津タ字４２－１", "url": "https://www.iryou.teikyouseido.mhlw.go.jp/znk-web/juminkanja/S2430/initialize?prefCd=17&kikanCd=4130025&kikanKbn=3", "url2": null }, "geometry": { "type": "Point", "coordinates": [ 137.147752, 37.309079 ] } },
{ "type": "Feature", "properties": { "内容": "かほくデンタルクリニック【3:歯科】石川県かほく市内日角タ２５番　イオンモールかほく１Ｆ", "url": "https://www.iryou.teikyouseido.mhlw.go.jp/znk-web/juminkanja/S2430/initialize?prefCd=17&kikanCd=414&kikanKbn=3", "url2": "http://kahoku.dentalmall.jp/" }, "geometry": { "type": "Point", "coordinates": [ 136.701212, 36.709017 ] } },
{ "type": "Feature", "properties": { "内容": "こばやし歯科医院【3:歯科】石川県羽咋郡志賀町富来領家町イ４９－４", "url": "https://www.iryou.teikyouseido.mhlw.go.jp/znk-web/juminkanja/S2430/initialize?prefCd=17&kikanCd=415&kikanKbn=3", "url2": "https://www.kobayashishikaiin.net/" }, "geometry": { "type": "Point", "coordinates": [ 136.726615, 37.140846 ] } },
{ "type": "Feature", "properties": { "内容": "てらい歯科クリニック【3:歯科】石川県羽咋郡志賀町富来領家町ソの６番地２", "url": "https://www.iryou.teikyouseido.mhlw.go.jp/znk-web/juminkanja/S2430/initialize?prefCd=17&kikanCd=416&kikanKbn=3", "url2": null }, "geometry": { "type": "Point", "coordinates": [ 136.730421, 37.142024 ] } },
{ "type": "Feature", "properties": { "内容": "アイビー歯科クリニック【3:歯科】石川県金沢市久安", "url": "https://www.iryou.teikyouseido.mhlw.go.jp/znk-web/juminkanja/S2430/initialize?prefCd=17&kikanCd=418&kikanKbn=3", "url2": "http:www.ivy-shika.com/" }, "geometry": { "type": "Point", "coordinates": [ 136.633386, 36.535422 ] } },
{ "type": "Feature", "properties": { "内容": "とね歯科医院【3:歯科】石川県珠洲市上戸町北方２字１４４番地", "url": "https://www.iryou.teikyouseido.mhlw.go.jp/znk-web/juminkanja/S2430/initialize?prefCd=17&kikanCd=4230001&kikanKbn=3", "url2": null }, "geometry": { "type": "Point", "coordinates": [ 137.261488, 37.434283 ] } },
{ "type": "Feature", "properties": { "内容": "医療法人社団　翠琥　キビキノ歯科医院【3:歯科】石川県金沢市寺中町ト４", "url": "https://www.iryou.teikyouseido.mhlw.go.jp/znk-web/juminkanja/S2430/initialize?prefCd=17&kikanCd=430&kikanKbn=3", "url2": "https://kibikinoshika.com/" }, "geometry": { "type": "Point", "coordinates": [ 136.602069, 36.599819 ] } },
{ "type": "Feature", "properties": { "内容": "金沢まごころ歯科【3:歯科】石川県金沢市玉鉾４－２６－２", "url": "https://www.iryou.teikyouseido.mhlw.go.jp/znk-web/juminkanja/S2430/initialize?prefCd=17&kikanCd=434&kikanKbn=3", "url2": "www.magokoro-dental.com" }, "geometry": { "type": "Point", "coordinates": [ 136.616591, 36.571643 ] } },
{ "type": "Feature", "properties": { "内容": "とみやま歯科【3:歯科】石川県金沢市窪５丁目５５０番地", "url": "https://www.iryou.teikyouseido.mhlw.go.jp/znk-web/juminkanja/S2430/initialize?prefCd=17&kikanCd=444&kikanKbn=3", "url2": "https://kanazawa-tomiyama.dental-office.jp/" }, "geometry": { "type": "Point", "coordinates": [ 136.637194, 36.529395 ] } },
{ "type": "Feature", "properties": { "内容": "とよはら歯科医院【3:歯科】石川県七尾市塗師町２番地", "url": "https://www.iryou.teikyouseido.mhlw.go.jp/znk-web/juminkanja/S2430/initialize?prefCd=17&kikanCd=455&kikanKbn=3", "url2": null }, "geometry": { "type": "Point", "coordinates": [ 136.969986, 37.044512 ] } },
{ "type": "Feature", "properties": { "内容": "小山田歯科医院【3:歯科】石川県金沢市京町７番６号", "url": "https://www.iryou.teikyouseido.mhlw.go.jp/znk-web/juminkanja/S2430/initialize?prefCd=17&kikanCd=475&kikanKbn=3", "url2": "oyamadadental.com" }, "geometry": { "type": "Point", "coordinates": [ 136.654428, 36.581958 ] } },
{ "type": "Feature", "properties": { "内容": "匠歯科医院【3:歯科】石川県金沢市保古１丁目８９番地", "url": "https://www.iryou.teikyouseido.mhlw.go.jp/znk-web/juminkanja/S2430/initialize?prefCd=17&kikanCd=477&kikanKbn=3", "url2": "http://takumi-dental.ishikawa.jp" }, "geometry": { "type": "Point", "coordinates": [ 136.621497, 36.557332 ] } },
{ "type": "Feature", "properties": { "内容": "医療法人社団えいあい歯科クリニック【3:歯科】石川県白山市専福寺町１５６－１", "url": "https://www.iryou.teikyouseido.mhlw.go.jp/znk-web/juminkanja/S2430/initialize?prefCd=17&kikanCd=478&kikanKbn=3", "url2": "http://www.eiai-shika.jp/" }, "geometry": { "type": "Point", "coordinates": [ 136.586707, 36.522471 ] } },
{ "type": "Feature", "properties": { "内容": "ケイ歯科【3:歯科】石川県加賀市小菅波町２丁目８０－１　ヴィラ・プレステージ加賀", "url": "https://www.iryou.teikyouseido.mhlw.go.jp/znk-web/juminkanja/S2430/initialize?prefCd=17&kikanCd=479&kikanKbn=3", "url2": "http://kei-shika.cihp.jp/" }, "geometry": { "type": "Point", "coordinates": [ 136.347875, 36.316508 ] } },
{ "type": "Feature", "properties": { "内容": "さわのデンタルクリニック【3:歯科】石川県かほく市七窪ハ１－５", "url": "https://www.iryou.teikyouseido.mhlw.go.jp/znk-web/juminkanja/S2430/initialize?prefCd=17&kikanCd=480&kikanKbn=3", "url2": null }, "geometry": { "type": "Point", "coordinates": [ 136.708108, 36.724163 ] } },
{ "type": "Feature", "properties": { "内容": "つばさ歯科医院【3:歯科】石川県金沢市新神田１－８－２２", "url": "https://www.iryou.teikyouseido.mhlw.go.jp/znk-web/juminkanja/S2430/initialize?prefCd=17&kikanCd=5130001&kikanKbn=3", "url2": "http://www.tsubasa-dc.com/" }, "geometry": { "type": "Point", "coordinates": [ 136.631942, 36.564959 ] } },
{ "type": "Feature", "properties": { "内容": "わだ歯科クリニック【3:歯科】石川県金沢市疋田１―９１", "url": "https://www.iryou.teikyouseido.mhlw.go.jp/znk-web/juminkanja/S2430/initialize?prefCd=17&kikanCd=5130003&kikanKbn=3", "url2": null }, "geometry": { "type": "Point", "coordinates": [ 136.671971, 36.603884 ] } },
{ "type": "Feature", "properties": { "内容": "宮田歯科室【3:歯科】石川県金沢市疋田１－２２５", "url": "https://www.iryou.teikyouseido.mhlw.go.jp/znk-web/juminkanja/S2430/initialize?prefCd=17&kikanCd=5130004&kikanKbn=3", "url2": null }, "geometry": { "type": "Point", "coordinates": [ 136.674082, 36.601188 ] } },
{ "type": "Feature", "properties": { "内容": "野尻歯科医院【3:歯科】石川県金沢市諸江町下丁２１１－３", "url": "https://www.iryou.teikyouseido.mhlw.go.jp/znk-web/juminkanja/S2430/initialize?prefCd=17&kikanCd=5130007&kikanKbn=3", "url2": "https://nojirishika.sakura.ne.jp" }, "geometry": { "type": "Point", "coordinates": [ 136.645807, 36.604466 ] } },
{ "type": "Feature", "properties": { "内容": "医療法人社団匠香林歯科・矯正歯科【3:歯科】石川県金沢市広岡３－１－１金沢パークビル２階", "url": "https://www.iryou.teikyouseido.mhlw.go.jp/znk-web/juminkanja/S2430/initialize?prefCd=17&kikanCd=5130016&kikanKbn=3", "url2": "http://koubaort.web.fc2.com/" }, "geometry": { "type": "Point", "coordinates": [ 136.64518, 36.580026 ] } },
{ "type": "Feature", "properties": { "内容": "医療法人社団なぎさ歯科クリニック【3:歯科】石川県金沢市広岡２－１０－６", "url": "https://www.iryou.teikyouseido.mhlw.go.jp/znk-web/juminkanja/S2430/initialize?prefCd=17&kikanCd=5130017&kikanKbn=3", "url2": "http://www.nagisadc.com/index.html" }, "geometry": { "type": "Point", "coordinates": [ 136.641673, 36.579292 ] } },
{ "type": "Feature", "properties": { "内容": "ＣＬＡＩＲ　ＤＥＮＴＡＬ　ＯＦＦＩＣＥ【3:歯科】石川県金沢市広岡１－７－１金沢駅西口ビル４階", "url": "https://www.iryou.teikyouseido.mhlw.go.jp/znk-web/juminkanja/S2430/initialize?prefCd=17&kikanCd=5130018&kikanKbn=3", "url2": "https://www.clairdental.jp" }, "geometry": { "type": "Point", "coordinates": [ 136.647297, 36.577432 ] } },
{ "type": "Feature", "properties": { "内容": "野口歯科医院【3:歯科】石川県金沢市長田本町チ１８番地", "url": "https://www.iryou.teikyouseido.mhlw.go.jp/znk-web/juminkanja/S2430/initialize?prefCd=17&kikanCd=5130019&kikanKbn=3", "url2": null }, "geometry": { "type": "Point", "coordinates": [ 136.640072, 36.573014 ] } },
{ "type": "Feature", "properties": { "内容": "しもむら歯科【3:歯科】石川県金沢市駅西本町５－２－９", "url": "https://www.iryou.teikyouseido.mhlw.go.jp/znk-web/juminkanja/S2430/initialize?prefCd=17&kikanCd=5130022&kikanKbn=3", "url2": null }, "geometry": { "type": "Point", "coordinates": [ 136.629863, 36.582521 ] } },
{ "type": "Feature", "properties": { "内容": "ヒロデンタルクリニック【3:歯科】石川県金沢市示野中町", "url": "https://www.iryou.teikyouseido.mhlw.go.jp/znk-web/juminkanja/S2430/initialize?prefCd=17&kikanCd=5130024&kikanKbn=3", "url2": null }, "geometry": { "type": "Point", "coordinates": [ 136.618045, 36.576772 ] } },
{ "type": "Feature", "properties": { "内容": "歯科前多【3:歯科】石川県金沢市問屋町", "url": "https://www.iryou.teikyouseido.mhlw.go.jp/znk-web/juminkanja/S2430/initialize?prefCd=17&kikanCd=5130025&kikanKbn=3", "url2": "http://www.shika-maeda.com" }, "geometry": { "type": "Point", "coordinates": [ 136.639165, 36.606896 ] } },
{ "type": "Feature", "properties": { "内容": "ひだまり歯科クリニック【3:歯科】石川県金沢市南新保町ㇼ７０－４", "url": "https://www.iryou.teikyouseido.mhlw.go.jp/znk-web/juminkanja/S2430/initialize?prefCd=17&kikanCd=5130026&kikanKbn=3", "url2": "http://www.hidamari-sika.com" }, "geometry": { "type": "Point", "coordinates": [ 136.631813, 36.601489 ] } },
{ "type": "Feature", "properties": { "内容": "かきはら歯科【3:歯科】石川県金沢市三ツ屋町ロ２３－３", "url": "https://www.iryou.teikyouseido.mhlw.go.jp/znk-web/juminkanja/S2430/initialize?prefCd=17&kikanCd=5130028&kikanKbn=3", "url2": null }, "geometry": { "type": "Point", "coordinates": [ 136.64373, 36.61086 ] } },
{ "type": "Feature", "properties": { "内容": "医療法人社団健巧会　江守歯科医院【3:歯科】石川県金沢市直江町イ３０－３", "url": "https://www.iryou.teikyouseido.mhlw.go.jp/znk-web/juminkanja/S2430/initialize?prefCd=17&kikanCd=5130029&kikanKbn=3", "url2": "http://www2.spacelan.ne.jp/~tmemori/" }, "geometry": { "type": "Point", "coordinates": [ 136.635649, 36.602194 ] } },
{ "type": "Feature", "properties": { "内容": "すみやま歯科クリニック【3:歯科】石川県金沢市近岡町４２０－１", "url": "https://www.iryou.teikyouseido.mhlw.go.jp/znk-web/juminkanja/S2430/initialize?prefCd=17&kikanCd=5130030&kikanKbn=3", "url2": null }, "geometry": { "type": "Point", "coordinates": [ 136.631533, 36.611504 ] } },
{ "type": "Feature", "properties": { "内容": "きのした歯科医院【3:歯科】石川県金沢市桂町イ１７－１", "url": "https://www.iryou.teikyouseido.mhlw.go.jp/znk-web/juminkanja/S2430/initialize?prefCd=17&kikanCd=5130033&kikanKbn=3", "url2": null }, "geometry": { "type": "Point", "coordinates": [ 136.607298, 36.604442 ] } },
{ "type": "Feature", "properties": { "内容": "西田歯科クリニック【3:歯科】石川県金沢市金石東３－６－８", "url": "https://www.iryou.teikyouseido.mhlw.go.jp/znk-web/juminkanja/S2430/initialize?prefCd=17&kikanCd=5130034&kikanKbn=3", "url2": null }, "geometry": { "type": "Point", "coordinates": [ 136.595028, 36.601677 ] } },
{ "type": "Feature", "properties": { "内容": "医療法人社団岡部歯科医院【3:歯科】石川県金沢市寺中町ホ７４ー１８", "url": "https://www.iryou.teikyouseido.mhlw.go.jp/znk-web/juminkanja/S2430/initialize?prefCd=17&kikanCd=5130037&kikanKbn=3", "url2": null }, "geometry": { "type": "Point", "coordinates": [ 136.605267, 36.595271 ] } },
{ "type": "Feature", "properties": { "内容": "医療法人社団和平歯科医院【3:歯科】石川県金沢市木曳野１丁目１８７番地", "url": "https://www.iryou.teikyouseido.mhlw.go.jp/znk-web/juminkanja/S2430/initialize?prefCd=17&kikanCd=5130038&kikanKbn=3", "url2": "http://wahei-dc.com" }, "geometry": { "type": "Point", "coordinates": [ 136.604138, 36.600567 ] } },
{ "type": "Feature", "properties": { "内容": "宮田歯科クリニック【3:歯科】石川県金沢市畝田西３－２０４", "url": "https://www.iryou.teikyouseido.mhlw.go.jp/znk-web/juminkanja/S2430/initialize?prefCd=17&kikanCd=5130039&kikanKbn=3", "url2": null }, "geometry": { "type": "Point", "coordinates": [ 136.608416, 36.598051 ] } },
{ "type": "Feature", "properties": { "内容": "たち歯科医院【3:歯科】石川県金沢市畝田東", "url": "https://www.iryou.teikyouseido.mhlw.go.jp/znk-web/juminkanja/S2430/initialize?prefCd=17&kikanCd=5130040&kikanKbn=3", "url2": "http://tachi-dc.com/" }, "geometry": { "type": "Point", "coordinates": [ 136.616365, 36.596223 ] } },
{ "type": "Feature", "properties": { "内容": "石川県口腔保健医療センター【3:歯科】石川県金沢市神宮寺３丁目２０番５号", "url": "https://www.iryou.teikyouseido.mhlw.go.jp/znk-web/juminkanja/S2430/initialize?prefCd=17&kikanCd=5130049&kikanKbn=3", "url2": "http://www.ida1926.or.jp/koku/" }, "geometry": { "type": "Point", "coordinates": [ 136.66544, 36.584628 ] } },
{ "type": "Feature", "properties": { "内容": "示野歯科医院【3:歯科】石川県金沢市小坂町中９９－７", "url": "https://www.iryou.teikyouseido.mhlw.go.jp/znk-web/juminkanja/S2430/initialize?prefCd=17&kikanCd=5130053&kikanKbn=3", "url2": "http://shimenoshika.com/" }, "geometry": { "type": "Point", "coordinates": [ 136.676826, 36.591045 ] } },
{ "type": "Feature", "properties": { "内容": "伊藤歯科医院【3:歯科】石川県金沢市大樋町", "url": "https://www.iryou.teikyouseido.mhlw.go.jp/znk-web/juminkanja/S2430/initialize?prefCd=17&kikanCd=5130055&kikanKbn=3", "url2": null }, "geometry": { "type": "Point", "coordinates": [ 136.676, 36.586744 ] } },
{ "type": "Feature", "properties": { "内容": "わたなべ歯科クリニック【3:歯科】石川県金沢市東長江町い２７番地５", "url": "https://www.iryou.teikyouseido.mhlw.go.jp/znk-web/juminkanja/S2430/initialize?prefCd=17&kikanCd=5130056&kikanKbn=3", "url2": null }, "geometry": { "type": "Point", "coordinates": [ 136.68848, 36.580265 ] } },
{ "type": "Feature", "properties": { "内容": "医療法人スワン会中嶋歯科医院【3:歯科】石川県金沢市東山３丁目５－１０", "url": "https://www.iryou.teikyouseido.mhlw.go.jp/znk-web/juminkanja/S2430/initialize?prefCd=17&kikanCd=5130057&kikanKbn=3", "url2": "http://www.nakashima-dc.net" }, "geometry": { "type": "Point", "coordinates": [ 136.665176, 36.576201 ] } },
{ "type": "Feature", "properties": { "内容": "西田歯科医院【3:歯科】石川県金沢市東山３丁目２９番１２号", "url": "https://www.iryou.teikyouseido.mhlw.go.jp/znk-web/juminkanja/S2430/initialize?prefCd=17&kikanCd=5130058&kikanKbn=3", "url2": null }, "geometry": { "type": "Point", "coordinates": [ 136.662892, 36.576665 ] } },
{ "type": "Feature", "properties": { "内容": "石川勤労者医療協会　城北歯科【3:歯科】石川県金沢市京町２０－１５", "url": "https://www.iryou.teikyouseido.mhlw.go.jp/znk-web/juminkanja/S2430/initialize?prefCd=17&kikanCd=5130064&kikanKbn=3", "url2": "http://www.ishikawa-kinikyo.jp/jsika/" }, "geometry": { "type": "Point", "coordinates": [ 136.655843, 36.582642 ] } },
{ "type": "Feature", "properties": { "内容": "矯正歯科専門　まつき矯正歯科クリニック【3:歯科】石川県金沢市本町　１－５－１　リファーレ１Ｆ", "url": "https://www.iryou.teikyouseido.mhlw.go.jp/znk-web/juminkanja/S2430/initialize?prefCd=17&kikanCd=5130066&kikanKbn=3", "url2": null }, "geometry": { "type": "Point", "coordinates": [ 136.651431, 36.57537 ] } },
{ "type": "Feature", "properties": { "内容": "竹下歯科医院【3:歯科】石川県金沢市芳斉１丁目６番３５号", "url": "https://www.iryou.teikyouseido.mhlw.go.jp/znk-web/juminkanja/S2430/initialize?prefCd=17&kikanCd=5130074&kikanKbn=3", "url2": null }, "geometry": { "type": "Point", "coordinates": [ 136.650041, 36.570355 ] } },
{ "type": "Feature", "properties": { "内容": "ふじむら歯科【3:歯科】石川県金沢市玉川町１３－１４", "url": "https://www.iryou.teikyouseido.mhlw.go.jp/znk-web/juminkanja/S2430/initialize?prefCd=17&kikanCd=5130076&kikanKbn=3", "url2": null }, "geometry": { "type": "Point", "coordinates": [ 136.650841, 36.572796 ] } },
{ "type": "Feature", "properties": { "内容": "ア歯科診療所【3:歯科】石川県金沢市南町４－６０大同生命ビル４階", "url": "https://www.iryou.teikyouseido.mhlw.go.jp/znk-web/juminkanja/S2430/initialize?prefCd=17&kikanCd=5130077&kikanKbn=3", "url2": "https://www.ashika.website/" }, "geometry": { "type": "Point", "coordinates": [ 136.653756, 36.566878 ] } },
{ "type": "Feature", "properties": { "内容": "中川歯科医院【3:歯科】石川県金沢市長土塀１－１２－１１", "url": "https://www.iryou.teikyouseido.mhlw.go.jp/znk-web/juminkanja/S2430/initialize?prefCd=17&kikanCd=5130080&kikanKbn=3", "url2": null }, "geometry": { "type": "Point", "coordinates": [ 136.646954, 36.568964 ] } },
{ "type": "Feature", "properties": { "内容": "谷歯科医院【3:歯科】石川県金沢市彦三町２丁目７番２号", "url": "https://www.iryou.teikyouseido.mhlw.go.jp/znk-web/juminkanja/S2430/initialize?prefCd=17&kikanCd=5130082&kikanKbn=3", "url2": null }, "geometry": { "type": "Point", "coordinates": [ 136.65646, 36.574638 ] } },
{ "type": "Feature", "properties": { "内容": "野村歯科医院【3:歯科】石川県金沢市三池栄町３０１番地", "url": "https://www.iryou.teikyouseido.mhlw.go.jp/znk-web/juminkanja/S2430/initialize?prefCd=17&kikanCd=5130083&kikanKbn=3", "url2": "http://www.nomura-dc.jp" }, "geometry": { "type": "Point", "coordinates": [ 136.671444, 36.597487 ] } },
{ "type": "Feature", "properties": { "内容": "医療法人社団和田歯科医院【3:歯科】石川県金沢市下新町６－１２", "url": "https://www.iryou.teikyouseido.mhlw.go.jp/znk-web/juminkanja/S2430/initialize?prefCd=17&kikanCd=5130085&kikanKbn=3", "url2": "https://wada-dent.com" }, "geometry": { "type": "Point", "coordinates": [ 136.663629, 36.571591 ] } },
{ "type": "Feature", "properties": { "内容": "小林歯科医院【3:歯科】石川県金沢市博労町７４", "url": "https://www.iryou.teikyouseido.mhlw.go.jp/znk-web/juminkanja/S2430/initialize?prefCd=17&kikanCd=5130088&kikanKbn=3", "url2": "kobayashi-shika.dentalmall.jp" }, "geometry": { "type": "Point", "coordinates": [ 136.658565, 36.570032 ] } },
{ "type": "Feature", "properties": { "内容": "井東歯科医院【3:歯科】石川県金沢市大手町１番１２号", "url": "https://www.iryou.teikyouseido.mhlw.go.jp/znk-web/juminkanja/S2430/initialize?prefCd=17&kikanCd=5130091&kikanKbn=3", "url2": null }, "geometry": { "type": "Point", "coordinates": [ 136.659341, 36.569498 ] } },
{ "type": "Feature", "properties": { "内容": "竹中歯科医院【3:歯科】石川県金沢市小立野１の６の１８", "url": "https://www.iryou.teikyouseido.mhlw.go.jp/znk-web/juminkanja/S2430/initialize?prefCd=17&kikanCd=5130104&kikanKbn=3", "url2": "http://takenakashika.net/" }, "geometry": { "type": "Point", "coordinates": [ 136.684017, 36.543124 ] } },
{ "type": "Feature", "properties": { "内容": "キタイチ歯科医院【3:歯科】石川県金沢市涌波", "url": "https://www.iryou.teikyouseido.mhlw.go.jp/znk-web/juminkanja/S2430/initialize?prefCd=17&kikanCd=5130107&kikanKbn=3", "url2": null }, "geometry": { "type": "Point", "coordinates": [ 136.685699, 36.535937 ] } },
{ "type": "Feature", "properties": { "内容": "かなざわ矯正歯科クリニック【3:歯科】石川県金沢市香林坊１－２－３８", "url": "https://www.iryou.teikyouseido.mhlw.go.jp/znk-web/juminkanja/S2430/initialize?prefCd=17&kikanCd=5130110&kikanKbn=3", "url2": "http://www.kanazawakyousei.jp/" }, "geometry": { "type": "Point", "coordinates": [ 136.654357, 36.564041 ] } },
{ "type": "Feature", "properties": { "内容": "竹内歯科医院【3:歯科】石川県金沢市本多町３丁目１１番２号", "url": "https://www.iryou.teikyouseido.mhlw.go.jp/znk-web/juminkanja/S2430/initialize?prefCd=17&kikanCd=5130114&kikanKbn=3", "url2": null }, "geometry": { "type": "Point", "coordinates": [ 136.658431, 36.556287 ] } },
{ "type": "Feature", "properties": { "内容": "高畑歯科医院【3:歯科】石川県金沢市笠舞２丁目２４番３号", "url": "https://www.iryou.teikyouseido.mhlw.go.jp/znk-web/juminkanja/S2430/initialize?prefCd=17&kikanCd=5130115&kikanKbn=3", "url2": null }, "geometry": { "type": "Point", "coordinates": [ 136.669922, 36.550311 ] } },
{ "type": "Feature", "properties": { "内容": "くぼた矯正歯科医院【3:歯科】石川県金沢市窪７丁目３６６", "url": "https://www.iryou.teikyouseido.mhlw.go.jp/znk-web/juminkanja/S2430/initialize?prefCd=17&kikanCd=5130121&kikanKbn=3", "url2": "http://www.kubota-orthod.com/" }, "geometry": { "type": "Point", "coordinates": [ 136.638753, 36.531282 ] } },
{ "type": "Feature", "properties": { "内容": "医療法人社団　溝口デンタルオフィス【3:歯科】石川県金沢市片町１－４－１８　トークタテマチビル２～５階", "url": "https://www.iryou.teikyouseido.mhlw.go.jp/znk-web/juminkanja/S2430/initialize?prefCd=17&kikanCd=5130122&kikanKbn=3", "url2": "http://www.mizo-dental.com" }, "geometry": { "type": "Point", "coordinates": [ 136.653405, 36.560754 ] } },
{ "type": "Feature", "properties": { "内容": "伊川歯科医院【3:歯科】石川県金沢市木倉町１ー１エコービル３階", "url": "https://www.iryou.teikyouseido.mhlw.go.jp/znk-web/juminkanja/S2430/initialize?prefCd=17&kikanCd=5130123&kikanKbn=3", "url2": null }, "geometry": { "type": "Point", "coordinates": [ 136.652777, 36.561344 ] } },
{ "type": "Feature", "properties": { "内容": "杉村歯科医院【3:歯科】石川県金沢市新竪町３丁目５６番地", "url": "https://www.iryou.teikyouseido.mhlw.go.jp/znk-web/juminkanja/S2430/initialize?prefCd=17&kikanCd=5130124&kikanKbn=3", "url2": "https://www.dc-sugimura.com/" }, "geometry": { "type": "Point", "coordinates": [ 136.655894, 36.556721 ] } },
{ "type": "Feature", "properties": { "内容": "山川歯科クリニック【3:歯科】石川県金沢市田上さくら３丁目７１番", "url": "https://www.iryou.teikyouseido.mhlw.go.jp/znk-web/juminkanja/S2430/initialize?prefCd=17&kikanCd=5130125&kikanKbn=3", "url2": null }, "geometry": { "type": "Point", "coordinates": [ 136.688684, 36.545844 ] } },
{ "type": "Feature", "properties": { "内容": "ハビリ歯科診療所【3:歯科】石川県金沢市別所町７１０番地ハビリポート若葉内", "url": "https://www.iryou.teikyouseido.mhlw.go.jp/znk-web/juminkanja/S2430/initialize?prefCd=17&kikanCd=5130131&kikanKbn=3", "url2": null }, "geometry": { "type": "Point", "coordinates": [ 136.671177, 36.501536 ] } },
{ "type": "Feature", "properties": { "内容": "蓮池歯科医院【3:歯科】石川県金沢市吉原町ハ４２", "url": "https://www.iryou.teikyouseido.mhlw.go.jp/znk-web/juminkanja/S2430/initialize?prefCd=17&kikanCd=5130133&kikanKbn=3", "url2": "http://www.hasuike-dc.com/index.html" }, "geometry": { "type": "Point", "coordinates": [ 136.691524, 36.612957 ] } },
{ "type": "Feature", "properties": { "内容": "みのり歯科医院【3:歯科】石川県金沢市福久１－８８", "url": "https://www.iryou.teikyouseido.mhlw.go.jp/znk-web/juminkanja/S2430/initialize?prefCd=17&kikanCd=5130135&kikanKbn=3", "url2": null }, "geometry": { "type": "Point", "coordinates": [ 136.680587, 36.621048 ] } },
{ "type": "Feature", "properties": { "内容": "医療法人社団金沢青葉会あおば歯科クリニック【3:歯科】石川県金沢市荒屋１丁目８３－２", "url": "https://www.iryou.teikyouseido.mhlw.go.jp/znk-web/juminkanja/S2430/initialize?prefCd=17&kikanCd=5130136&kikanKbn=3", "url2": "http://www.aobashika.jp/" }, "geometry": { "type": "Point", "coordinates": [ 136.683971, 36.615493 ] } },
{ "type": "Feature", "properties": { "内容": "医療法人社団向日葵会　たんぼ歯科診療所【3:歯科】石川県金沢市百坂町リ３１－５７", "url": "https://www.iryou.teikyouseido.mhlw.go.jp/znk-web/juminkanja/S2430/initialize?prefCd=17&kikanCd=5130137&kikanKbn=3", "url2": "http://tambodc.jp/" }, "geometry": { "type": "Point", "coordinates": [ 136.688651, 36.610555 ] } },
{ "type": "Feature", "properties": { "内容": "デンタルオフィス大森【3:歯科】石川県金沢市鞍月５丁目１８１番地", "url": "https://www.iryou.teikyouseido.mhlw.go.jp/znk-web/juminkanja/S2430/initialize?prefCd=17&kikanCd=5130139&kikanKbn=3", "url2": "http://www.d-o-omori.com" }, "geometry": { "type": "Point", "coordinates": [ 136.625869, 36.596909 ] } },
{ "type": "Feature", "properties": { "内容": "しま矯正歯科【3:歯科】石川県金沢市鞍月", "url": "https://www.iryou.teikyouseido.mhlw.go.jp/znk-web/juminkanja/S2430/initialize?prefCd=17&kikanCd=5130141&kikanKbn=3", "url2": "http://www.ha-ha-ha-ha.com/" }, "geometry": { "type": "Point", "coordinates": [ 136.624875, 36.598768 ] } },
{ "type": "Feature", "properties": { "内容": "ぬりや歯科医院【3:歯科】石川県金沢市大友２丁目９０番地", "url": "https://www.iryou.teikyouseido.mhlw.go.jp/znk-web/juminkanja/S2430/initialize?prefCd=17&kikanCd=5130142&kikanKbn=3", "url2": null }, "geometry": { "type": "Point", "coordinates": [ 136.625413, 36.60068 ] } },
{ "type": "Feature", "properties": { "内容": "大桑歯科・矯正歯科【3:歯科】石川県金沢市大桑３－１７６", "url": "https://www.iryou.teikyouseido.mhlw.go.jp/znk-web/juminkanja/S2430/initialize?prefCd=17&kikanCd=5130143&kikanKbn=3", "url2": "http://www.ookuwasika.com/" }, "geometry": { "type": "Point", "coordinates": [ 136.677199, 36.533609 ] } },
{ "type": "Feature", "properties": { "内容": "医療法人社団宮本歯科医院【3:歯科】石川県金沢市東力町ニ２８６番地", "url": "https://www.iryou.teikyouseido.mhlw.go.jp/znk-web/juminkanja/S2430/initialize?prefCd=17&kikanCd=5130149&kikanKbn=3", "url2": "http://www.dental-miyamoto.com" }, "geometry": { "type": "Point", "coordinates": [ 136.621414, 36.565875 ] } },
{ "type": "Feature", "properties": { "内容": "白山歯科【3:歯科】石川県金沢市泉野町６丁目１９番５０号", "url": "https://www.iryou.teikyouseido.mhlw.go.jp/znk-web/juminkanja/S2430/initialize?prefCd=17&kikanCd=5130158&kikanKbn=3", "url2": null }, "geometry": { "type": "Point", "coordinates": [ 136.648692, 36.541292 ] } },
{ "type": "Feature", "properties": { "内容": "ツシマ歯科医院【3:歯科】石川県金沢市泉野町", "url": "https://www.iryou.teikyouseido.mhlw.go.jp/znk-web/juminkanja/S2430/initialize?prefCd=17&kikanCd=5130159&kikanKbn=3", "url2": null }, "geometry": { "type": "Point", "coordinates": [ 136.649148, 36.543538 ] } },
{ "type": "Feature", "properties": { "内容": "あらき歯科【3:歯科】石川県金沢市泉野町", "url": "https://www.iryou.teikyouseido.mhlw.go.jp/znk-web/juminkanja/S2430/initialize?prefCd=17&kikanCd=5130161&kikanKbn=3", "url2": "http://www.araki-sika.com/" }, "geometry": { "type": "Point", "coordinates": [ 136.653289, 36.545066 ] } },
{ "type": "Feature", "properties": { "内容": "にいざわ歯科医院【3:歯科】石川県金沢市泉が丘", "url": "https://www.iryou.teikyouseido.mhlw.go.jp/znk-web/juminkanja/S2430/initialize?prefCd=17&kikanCd=5130162&kikanKbn=3", "url2": "http://www.niizawa.com" }, "geometry": { "type": "Point", "coordinates": [ 136.646229, 36.543219 ] } },
{ "type": "Feature", "properties": { "内容": "泉野歯科【3:歯科】石川県金沢市弥生１丁目１９－１３", "url": "https://www.iryou.teikyouseido.mhlw.go.jp/znk-web/juminkanja/S2430/initialize?prefCd=17&kikanCd=5130164&kikanKbn=3", "url2": null }, "geometry": { "type": "Point", "coordinates": [ 136.649025, 36.548401 ] } },
{ "type": "Feature", "properties": { "内容": "はすいけ歯科【3:歯科】石川県金沢市泉３丁目６番５２号", "url": "https://www.iryou.teikyouseido.mhlw.go.jp/znk-web/juminkanja/S2430/initialize?prefCd=17&kikanCd=5130166&kikanKbn=3", "url2": "http://hasuike8020.juno.bindsite.jp/" }, "geometry": { "type": "Point", "coordinates": [ 136.638063, 36.544562 ] } },
{ "type": "Feature", "properties": { "内容": "柳沢歯科医院【3:歯科】石川県金沢市泉本町", "url": "https://www.iryou.teikyouseido.mhlw.go.jp/znk-web/juminkanja/S2430/initialize?prefCd=17&kikanCd=5130168&kikanKbn=3", "url2": null }, "geometry": { "type": "Point", "coordinates": [ 136.64022, 36.550374 ] } },
{ "type": "Feature", "properties": { "内容": "医療法人社団源会ひがし歯科医院【3:歯科】石川県金沢市西泉１丁目１４番地", "url": "https://www.iryou.teikyouseido.mhlw.go.jp/znk-web/juminkanja/S2430/initialize?prefCd=17&kikanCd=5130170&kikanKbn=3", "url2": null }, "geometry": { "type": "Point", "coordinates": [ 136.632315, 36.544503 ] } },
{ "type": "Feature", "properties": { "内容": "医療法人社団ハッピー歯科医院【3:歯科】石川県金沢市八日市５丁目５５９", "url": "https://www.iryou.teikyouseido.mhlw.go.jp/znk-web/juminkanja/S2430/initialize?prefCd=17&kikanCd=5130174&kikanKbn=3", "url2": "http://www.happy-dental.jp" }, "geometry": { "type": "Point", "coordinates": [ 136.6113, 36.550186 ] } },
{ "type": "Feature", "properties": { "内容": "医療法人社団まめだ会　まめだ歯科医院【3:歯科】石川県金沢市大豆田本町ハ５０番地３", "url": "https://www.iryou.teikyouseido.mhlw.go.jp/znk-web/juminkanja/S2430/initialize?prefCd=17&kikanCd=5130175&kikanKbn=3", "url2": "http://mameda-dc.com/" }, "geometry": { "type": "Point", "coordinates": [ 136.632462, 36.567615 ] } },
{ "type": "Feature", "properties": { "内容": "庄田歯科【3:歯科】石川県金沢市黒田", "url": "https://www.iryou.teikyouseido.mhlw.go.jp/znk-web/juminkanja/S2430/initialize?prefCd=17&kikanCd=5130176&kikanKbn=3", "url2": null }, "geometry": { "type": "Point", "coordinates": [ 136.615036, 36.559511 ] } },
{ "type": "Feature", "properties": { "内容": "かしわい歯科【3:歯科】石川県金沢市西金沢４丁目５４２番地", "url": "https://www.iryou.teikyouseido.mhlw.go.jp/znk-web/juminkanja/S2430/initialize?prefCd=17&kikanCd=5130178&kikanKbn=3", "url2": null }, "geometry": { "type": "Point", "coordinates": [ 136.611117, 36.555195 ] } },
{ "type": "Feature", "properties": { "内容": "医療法人社団よつば会　すこやか歯科クリニック【3:歯科】石川県金沢市西金沢", "url": "https://www.iryou.teikyouseido.mhlw.go.jp/znk-web/juminkanja/S2430/initialize?prefCd=17&kikanCd=5130179&kikanKbn=3", "url2": "http://sukoyaka.dental/" }, "geometry": { "type": "Point", "coordinates": [ 136.615443, 36.553419 ] } },
{ "type": "Feature", "properties": { "内容": "おかべ歯科医院【3:歯科】石川県金沢市西金沢新町１８２番地", "url": "https://www.iryou.teikyouseido.mhlw.go.jp/znk-web/juminkanja/S2430/initialize?prefCd=17&kikanCd=5130180&kikanKbn=3", "url2": "https://okabe-shika.jp" }, "geometry": { "type": "Point", "coordinates": [ 136.616798, 36.553814 ] } },
{ "type": "Feature", "properties": { "内容": "高野歯科医院【3:歯科】石川県金沢市新保本３丁目１番地", "url": "https://www.iryou.teikyouseido.mhlw.go.jp/znk-web/juminkanja/S2430/initialize?prefCd=17&kikanCd=5130182&kikanKbn=3", "url2": "http://takanosika.cihp.jp/" }, "geometry": { "type": "Point", "coordinates": [ 136.604463, 36.555473 ] } },
{ "type": "Feature", "properties": { "内容": "さとう歯科医院【3:歯科】石川県金沢市上荒屋６－５２２", "url": "https://www.iryou.teikyouseido.mhlw.go.jp/znk-web/juminkanja/S2430/initialize?prefCd=17&kikanCd=5130185&kikanKbn=3", "url2": "https://satodc-kanazawa.com/" }, "geometry": { "type": "Point", "coordinates": [ 136.587667, 36.553719 ] } },
{ "type": "Feature", "properties": { "内容": "西南部歯科医院【3:歯科】石川県金沢市矢木１丁目１４０番地", "url": "https://www.iryou.teikyouseido.mhlw.go.jp/znk-web/juminkanja/S2430/initialize?prefCd=17&kikanCd=5130186&kikanKbn=3", "url2": null }, "geometry": { "type": "Point", "coordinates": [ 136.598342, 36.554221 ] } },
{ "type": "Feature", "properties": { "内容": "丘村歯科医院【3:歯科】石川県金沢市平和町２丁目２１番２２号", "url": "https://www.iryou.teikyouseido.mhlw.go.jp/znk-web/juminkanja/S2430/initialize?prefCd=17&kikanCd=5130188&kikanKbn=3", "url2": null }, "geometry": { "type": "Point", "coordinates": [ 136.665083, 36.540252 ] } },
{ "type": "Feature", "properties": { "内容": "杉村歯科医院【3:歯科】石川県金沢市平和町２－１１－１７", "url": "https://www.iryou.teikyouseido.mhlw.go.jp/znk-web/juminkanja/S2430/initialize?prefCd=17&kikanCd=5130189&kikanKbn=3", "url2": "http://kimura-sika.com" }, "geometry": { "type": "Point", "coordinates": [ 136.664322, 36.541506 ] } },
{ "type": "Feature", "properties": { "内容": "福田歯科医院【3:歯科】石川県金沢市泉野出町４丁目２番９号", "url": "https://www.iryou.teikyouseido.mhlw.go.jp/znk-web/juminkanja/S2430/initialize?prefCd=17&kikanCd=5130191&kikanKbn=3", "url2": null }, "geometry": { "type": "Point", "coordinates": [ 136.647906, 36.535399 ] } },
{ "type": "Feature", "properties": { "内容": "ひまわり歯科医院【3:歯科】石川県金沢市泉野出町２－６－６", "url": "https://www.iryou.teikyouseido.mhlw.go.jp/znk-web/juminkanja/S2430/initialize?prefCd=17&kikanCd=5130192&kikanKbn=3", "url2": null }, "geometry": { "type": "Point", "coordinates": [ 136.654961, 36.538674 ] } },
{ "type": "Feature", "properties": { "内容": "高木歯科医院【3:歯科】石川県金沢市額谷", "url": "https://www.iryou.teikyouseido.mhlw.go.jp/znk-web/juminkanja/S2430/initialize?prefCd=17&kikanCd=5130196&kikanKbn=3", "url2": "http://park5.wakwak.com/~takagishika/" }, "geometry": { "type": "Point", "coordinates": [ 136.62294, 36.507812 ] } },
{ "type": "Feature", "properties": { "内容": "浦崎歯科医院【3:歯科】石川県金沢市額新保１－３６６", "url": "https://www.iryou.teikyouseido.mhlw.go.jp/znk-web/juminkanja/S2430/initialize?prefCd=17&kikanCd=5130199&kikanKbn=3", "url2": null }, "geometry": { "type": "Point", "coordinates": [ 136.615715, 36.521638 ] } },
{ "type": "Feature", "properties": { "内容": "おおさか歯科医院【3:歯科】石川県金沢市額新保２丁目２３１", "url": "https://www.iryou.teikyouseido.mhlw.go.jp/znk-web/juminkanja/S2430/initialize?prefCd=17&kikanCd=5130200&kikanKbn=3", "url2": null }, "geometry": { "type": "Point", "coordinates": [ 136.616111, 36.519479 ] } },
{ "type": "Feature", "properties": { "内容": "高尾佐々木歯科医院【3:歯科】石川県金沢市高尾台１－５５", "url": "https://www.iryou.teikyouseido.mhlw.go.jp/znk-web/juminkanja/S2430/initialize?prefCd=17&kikanCd=5130206&kikanKbn=3", "url2": null }, "geometry": { "type": "Point", "coordinates": [ 136.637907, 36.524139 ] } },
{ "type": "Feature", "properties": { "内容": "スター矯正歯科・歯科【3:歯科】石川県金沢市有松２－１６－１", "url": "https://www.iryou.teikyouseido.mhlw.go.jp/znk-web/juminkanja/S2430/initialize?prefCd=17&kikanCd=5130209&kikanKbn=3", "url2": "http://www.star-dc.jp/" }, "geometry": { "type": "Point", "coordinates": [ 136.634879, 36.544146 ] } },
{ "type": "Feature", "properties": { "内容": "北野歯科医院【3:歯科】石川県金沢市久安１丁目４６８番地", "url": "https://www.iryou.teikyouseido.mhlw.go.jp/znk-web/juminkanja/S2430/initialize?prefCd=17&kikanCd=5130210&kikanKbn=3", "url2": null }, "geometry": { "type": "Point", "coordinates": [ 136.63143, 36.532792 ] } },
{ "type": "Feature", "properties": { "内容": "よしお歯科クリニック【3:歯科】石川県金沢市富樫", "url": "https://www.iryou.teikyouseido.mhlw.go.jp/znk-web/juminkanja/S2430/initialize?prefCd=17&kikanCd=5130212&kikanKbn=3", "url2": "https://www.yoshio-shika.com/" }, "geometry": { "type": "Point", "coordinates": [ 136.646007, 36.539544 ] } },
{ "type": "Feature", "properties": { "内容": "医療法人社団豊歯会香林坊歯科クリニック【3:歯科】石川県金沢市富樫", "url": "https://www.iryou.teikyouseido.mhlw.go.jp/znk-web/juminkanja/S2430/initialize?prefCd=17&kikanCd=5130213&kikanKbn=3", "url2": "http://www.243-4618.com" }, "geometry": { "type": "Point", "coordinates": [ 136.647643, 36.537049 ] } },
{ "type": "Feature", "properties": { "内容": "なかはま歯科医院【3:歯科】石川県金沢市山科１丁目１番１１号", "url": "https://www.iryou.teikyouseido.mhlw.go.jp/znk-web/juminkanja/S2430/initialize?prefCd=17&kikanCd=5130216&kikanKbn=3", "url2": null }, "geometry": { "type": "Point", "coordinates": [ 136.646946, 36.529887 ] } },
{ "type": "Feature", "properties": { "内容": "ませ歯科医院【3:歯科】石川県金沢市上安原２ー１６７", "url": "https://www.iryou.teikyouseido.mhlw.go.jp/znk-web/juminkanja/S2430/initialize?prefCd=17&kikanCd=5130219&kikanKbn=3", "url2": null }, "geometry": { "type": "Point", "coordinates": [ 136.588334, 36.566086 ] } },
{ "type": "Feature", "properties": { "内容": "高忠デンタルクリニック【3:歯科】石川県金沢市入江１丁目１５５番地", "url": "https://www.iryou.teikyouseido.mhlw.go.jp/znk-web/juminkanja/S2430/initialize?prefCd=17&kikanCd=5130220&kikanKbn=3", "url2": "http://www.takachu-d.net" }, "geometry": { "type": "Point", "coordinates": [ 136.628648, 36.564039 ] } },
{ "type": "Feature", "properties": { "内容": "ファミリー歯科【3:歯科】石川県金沢市大桑２丁目２６１番", "url": "https://www.iryou.teikyouseido.mhlw.go.jp/znk-web/juminkanja/S2430/initialize?prefCd=17&kikanCd=5130222&kikanKbn=3", "url2": null }, "geometry": { "type": "Point", "coordinates": [ 136.674724, 36.53564 ] } },
{ "type": "Feature", "properties": { "内容": "垣内歯科クリニック【3:歯科】石川県金沢市福増町北１３８４番地", "url": "https://www.iryou.teikyouseido.mhlw.go.jp/znk-web/juminkanja/S2430/initialize?prefCd=17&kikanCd=5130224&kikanKbn=3", "url2": "http://www.kakiuchi-dc.com" }, "geometry": { "type": "Point", "coordinates": [ 136.581837, 36.564667 ] } },
{ "type": "Feature", "properties": { "内容": "くに歯科クリニック【3:歯科】石川県金沢市田上の里２－１４９", "url": "https://www.iryou.teikyouseido.mhlw.go.jp/znk-web/juminkanja/S2430/initialize?prefCd=17&kikanCd=5130226&kikanKbn=3", "url2": "http://kuni-sika.com" }, "geometry": { "type": "Point", "coordinates": [ 136.691862, 36.547733 ] } },
{ "type": "Feature", "properties": { "内容": "みやうちこどもデンタルクリニック【3:歯科】石川県金沢市鞍月３丁目ー１０１", "url": "https://www.iryou.teikyouseido.mhlw.go.jp/znk-web/juminkanja/S2430/initialize?prefCd=17&kikanCd=525&kikanKbn=3", "url2": "https://www.m-k-d-c.jp/" }, "geometry": { "type": "Point", "coordinates": [ 136.620127, 36.597765 ] } },
{ "type": "Feature", "properties": { "内容": "伊藤歯科医院【3:歯科】石川県小松市日の出町３丁目１８１", "url": "https://www.iryou.teikyouseido.mhlw.go.jp/znk-web/juminkanja/S2430/initialize?prefCd=17&kikanCd=529&kikanKbn=3", "url2": "http://ito-dc-komatsu.jp" }, "geometry": { "type": "Point", "coordinates": [ 136.453244, 36.396019 ] } },
{ "type": "Feature", "properties": { "内容": "まこと歯科クリニック【3:歯科】石川県羽咋市石野町ト２１番地４", "url": "https://www.iryou.teikyouseido.mhlw.go.jp/znk-web/juminkanja/S2430/initialize?prefCd=17&kikanCd=534&kikanKbn=3", "url2": "http://www.makotodentalclinic.jp/" }, "geometry": { "type": "Point", "coordinates": [ 136.79485, 36.895365 ] } },
{ "type": "Feature", "properties": { "内容": "どんぐり歯科クリニック【3:歯科】石川県金沢市末町１３－３－６", "url": "https://www.iryou.teikyouseido.mhlw.go.jp/znk-web/juminkanja/S2430/initialize?prefCd=17&kikanCd=545&kikanKbn=3", "url2": "https://donguri-dental.com/" }, "geometry": { "type": "Point", "coordinates": [ 136.6868, 36.5217 ] } },
{ "type": "Feature", "properties": { "内容": "金沢けんろく矯正歯科【3:歯科】石川県金沢市田上の里１丁目１０６番地１", "url": "https://www.iryou.teikyouseido.mhlw.go.jp/znk-web/juminkanja/S2430/initialize?prefCd=17&kikanCd=547&kikanKbn=3", "url2": "https://kenroku-kyosei.jp" }, "geometry": { "type": "Point", "coordinates": [ 136.69166, 36.5447 ] } },
{ "type": "Feature", "properties": { "内容": "ＰｉＥＡＣＥ　ＤＥＮＴＡＬ　ＣＬＩＮＩＣ【3:歯科】石川県金沢市大友３丁目２番地", "url": "https://www.iryou.teikyouseido.mhlw.go.jp/znk-web/juminkanja/S2430/initialize?prefCd=17&kikanCd=559&kikanKbn=3", "url2": "https://pieace.jp/" }, "geometry": { "type": "Point", "coordinates": [ 136.62819, 36.60429 ] } },
{ "type": "Feature", "properties": { "内容": "本庄歯科医院【3:歯科】石川県羽咋郡宝達志水町今浜へ２７７ー１", "url": "https://www.iryou.teikyouseido.mhlw.go.jp/znk-web/juminkanja/S2430/initialize?prefCd=17&kikanCd=777&kikanKbn=3", "url2": null }, "geometry": { "type": "Point", "coordinates": [ 136.752078, 36.827994 ] } },
{ "type": "Feature", "properties": { "内容": "くすのき歯科医院【3:歯科】石川県小松市吉竹町４丁目２１２番地", "url": "https://www.iryou.teikyouseido.mhlw.go.jp/znk-web/juminkanja/S2430/initialize?prefCd=17&kikanCd=778&kikanKbn=3", "url2": null }, "geometry": { "type": "Point", "coordinates": [ 136.472201, 36.395534 ] } },
{ "type": "Feature", "properties": { "内容": "なかむら歯科クリニック【3:歯科】石川県加賀市湖城町２丁目３３７番", "url": "https://www.iryou.teikyouseido.mhlw.go.jp/znk-web/juminkanja/S2430/initialize?prefCd=17&kikanCd=779&kikanKbn=3", "url2": null }, "geometry": { "type": "Point", "coordinates": [ 136.358842, 36.338858 ] } },
{ "type": "Feature", "properties": { "内容": "医療法人社団中井歯科医院【3:歯科】石川県河北郡津幡町太田は１１３番地１", "url": "https://www.iryou.teikyouseido.mhlw.go.jp/znk-web/juminkanja/S2430/initialize?prefCd=17&kikanCd=783&kikanKbn=3", "url2": null }, "geometry": { "type": "Point", "coordinates": [ 136.721615, 36.655463 ] } },
{ "type": "Feature", "properties": { "内容": "伏見台歯科クリニック【3:歯科】石川県金沢市窪６－２４５トレンディ伏見台ビル１０１号", "url": "https://www.iryou.teikyouseido.mhlw.go.jp/znk-web/juminkanja/S2430/initialize?prefCd=17&kikanCd=787&kikanKbn=3", "url2": null }, "geometry": { "type": "Point", "coordinates": [ 136.65367, 36.56224 ] } },
{ "type": "Feature", "properties": { "内容": "グリーン歯科クリニック【3:歯科】石川県金沢市直江東２－５９", "url": "https://www.iryou.teikyouseido.mhlw.go.jp/znk-web/juminkanja/S2430/initialize?prefCd=17&kikanCd=793&kikanKbn=3", "url2": "https://green-dentistry.jp/" }, "geometry": { "type": "Point", "coordinates": [ 136.635039, 36.613961 ] } },
{ "type": "Feature", "properties": { "内容": "ミースデンタルクリニック【3:歯科】石川県野々市市御経塚１丁目４４６", "url": "https://www.iryou.teikyouseido.mhlw.go.jp/znk-web/juminkanja/S2430/initialize?prefCd=17&kikanCd=794&kikanKbn=3", "url2": null }, "geometry": { "type": "Point", "coordinates": [ 136.597874, 36.544647 ] } },
{ "type": "Feature", "properties": { "内容": "あらい歯科クリニック【3:歯科】石川県白山市千代野東５丁目５－３", "url": "https://www.iryou.teikyouseido.mhlw.go.jp/znk-web/juminkanja/S2430/initialize?prefCd=17&kikanCd=804&kikanKbn=3", "url2": "https://araidentalclinic.co.jp/" }, "geometry": { "type": "Point", "coordinates": [ 136.542839, 36.523844 ] } },
{ "type": "Feature", "properties": { "内容": "すみれ歯科クリニック【3:歯科】石川県七尾市本府中町ル部３５−３", "url": "https://www.iryou.teikyouseido.mhlw.go.jp/znk-web/juminkanja/S2430/initialize?prefCd=17&kikanCd=828&kikanKbn=3", "url2": "www.sumire-nanao.com" }, "geometry": { "type": "Point", "coordinates": [ 136.967778, 37.035055 ] } },
{ "type": "Feature", "properties": { "内容": "医療法人社団健巧会　さくら矯正歯科クリニック【3:歯科】石川県金沢市近岡町４２８－１ＳＯＯＬ　ＢＵＩＬＤＩＮＧ　２階", "url": "https://www.iryou.teikyouseido.mhlw.go.jp/znk-web/juminkanja/S2430/initialize?prefCd=17&kikanCd=837&kikanKbn=3", "url2": null }, "geometry": { "type": "Point", "coordinates": [ 136.631217, 36.610388 ] } },
{ "type": "Feature", "properties": { "内容": "かど歯科医院【3:歯科】石川県鳳珠郡穴水町大町ろー３０－１", "url": "https://www.iryou.teikyouseido.mhlw.go.jp/znk-web/juminkanja/S2430/initialize?prefCd=17&kikanCd=841&kikanKbn=3", "url2": null }, "geometry": { "type": "Point", "coordinates": [ 136.909236, 37.226938 ] } }
]
}
