{
"type": "FeatureCollection",
"name": "geo_17_4",
"crs": { "type": "name", "properties": { "name": "urn:ogc:def:crs:OGC:1.3:CRS84" } },
"features": [
{ "type": "Feature", "properties": { "内容": "ゆたか助産院【4:助産院】石川県加賀市大聖寺本町３９番地２号", "url": "https://www.iryou.teikyouseido.mhlw.go.jp/znk-web/juminkanja/S2430/initialize?prefCd=17&kikanCd=1241001&kikanKbn=4", "url2": "https://yutaka-mw.com" }, "geometry": { "type": "Point", "coordinates": [ 136.311745, 36.306335 ] } },
{ "type": "Feature", "properties": { "内容": "わこ助産院【4:助産院】石川県加賀市荒木町ニ２９甲", "url": "https://www.iryou.teikyouseido.mhlw.go.jp/znk-web/juminkanja/S2430/initialize?prefCd=17&kikanCd=1241002&kikanKbn=4", "url2": null }, "geometry": { "type": "Point", "coordinates": [ 136.34531, 36.28359 ] } },
{ "type": "Feature", "properties": { "内容": "あゆみ助産院【4:助産院】石川県加賀市松が丘３丁目１３番地９", "url": "https://www.iryou.teikyouseido.mhlw.go.jp/znk-web/juminkanja/S2430/initialize?prefCd=17&kikanCd=1241004&kikanKbn=4", "url2": null }, "geometry": { "type": "Point", "coordinates": [ 136.336234, 36.322566 ] } },
{ "type": "Feature", "properties": { "内容": "すみれ助産院【4:助産院】石川県白山市山島台１丁目４７番地", "url": "https://www.iryou.teikyouseido.mhlw.go.jp/znk-web/juminkanja/S2430/initialize?prefCd=17&kikanCd=2140001&kikanKbn=4", "url2": null }, "geometry": { "type": "Point", "coordinates": [ 136.579875, 36.471313 ] } },
{ "type": "Feature", "properties": { "内容": "助産院　いのちの森【4:助産院】石川県白山市藤木町２５５－２", "url": "https://www.iryou.teikyouseido.mhlw.go.jp/znk-web/juminkanja/S2430/initialize?prefCd=17&kikanCd=2140002&kikanKbn=4", "url2": "https://inochinomoristyle.jimdo.com/" }, "geometry": { "type": "Point", "coordinates": [ 136.5828, 36.482253 ] } },
{ "type": "Feature", "properties": { "内容": "菜の花助産院【4:助産院】石川県白山市知気寺町リ２９－１", "url": "https://www.iryou.teikyouseido.mhlw.go.jp/znk-web/juminkanja/S2430/initialize?prefCd=17&kikanCd=2140004&kikanKbn=4", "url2": null }, "geometry": { "type": "Point", "coordinates": [ 136.601448, 36.488167 ] } },
{ "type": "Feature", "properties": { "内容": "たらちね助産院【4:助産院】石川県金沢市七ツ屋町二５－１", "url": "https://www.iryou.teikyouseido.mhlw.go.jp/znk-web/juminkanja/S2430/initialize?prefCd=17&kikanCd=2240002&kikanKbn=4", "url2": "https://tarachine-ishikawa.jimdo.free.com/" }, "geometry": { "type": "Point", "coordinates": [ 136.649823, 36.589331 ] } },
{ "type": "Feature", "properties": { "内容": "頼助産院（子そだて応援１２ＳＵＮ相談室）【4:助産院】石川県河北郡内灘町鶴ヶ丘１−２９６−２", "url": "https://www.iryou.teikyouseido.mhlw.go.jp/znk-web/juminkanja/S2430/initialize?prefCd=17&kikanCd=2240004&kikanKbn=4", "url2": "http://www.rai-jyosanin.com" }, "geometry": { "type": "Point", "coordinates": [ 136.641592, 36.639675 ] } },
{ "type": "Feature", "properties": { "内容": "まき助産院【4:助産院】石川県白山市千代野西３丁目３－１０", "url": "https://www.iryou.teikyouseido.mhlw.go.jp/znk-web/juminkanja/S2430/initialize?prefCd=17&kikanCd=327&kikanKbn=4", "url2": null }, "geometry": { "type": "Point", "coordinates": [ 136.536358, 36.523061 ] } },
{ "type": "Feature", "properties": { "内容": "くじら助産院【4:助産院】石川県小松市埴田町ト６番地１", "url": "https://www.iryou.teikyouseido.mhlw.go.jp/znk-web/juminkanja/S2430/initialize?prefCd=17&kikanCd=507&kikanKbn=4", "url2": "https://kujirajosanin.com/" }, "geometry": { "type": "Point", "coordinates": [ 136.516966, 36.404979 ] } },
{ "type": "Feature", "properties": { "内容": "ひだまりの家助産院【4:助産院】石川県金沢市大友１丁目３１３番地", "url": "https://www.iryou.teikyouseido.mhlw.go.jp/znk-web/juminkanja/S2430/initialize?prefCd=17&kikanCd=5140003&kikanKbn=4", "url2": null }, "geometry": { "type": "Point", "coordinates": [ 136.629206, 36.601744 ] } },
{ "type": "Feature", "properties": { "内容": "ひまわり助産院【4:助産院】石川県金沢市泉野出町４丁目１３－２２", "url": "https://www.iryou.teikyouseido.mhlw.go.jp/znk-web/juminkanja/S2430/initialize?prefCd=17&kikanCd=5140004&kikanKbn=4", "url2": null }, "geometry": { "type": "Point", "coordinates": [ 136.651606, 36.535006 ] } },
{ "type": "Feature", "properties": { "内容": "山本助産院【4:助産院】石川県金沢市新保本１丁目２２２番地", "url": "https://www.iryou.teikyouseido.mhlw.go.jp/znk-web/juminkanja/S2430/initialize?prefCd=17&kikanCd=5140006&kikanKbn=4", "url2": null }, "geometry": { "type": "Point", "coordinates": [ 136.605793, 36.549684 ] } },
{ "type": "Feature", "properties": { "内容": "森木真美母乳育児相談室【4:助産院】石川県金沢市笠舞２丁目２０番１６号", "url": "https://www.iryou.teikyouseido.mhlw.go.jp/znk-web/juminkanja/S2430/initialize?prefCd=17&kikanCd=5140011&kikanKbn=4", "url2": "http://moriki-oketani.com/" }, "geometry": { "type": "Point", "coordinates": [ 136.671373, 36.551334 ] } },
{ "type": "Feature", "properties": { "内容": "しのぶ助産院【4:助産院】石川県金沢市松村", "url": "https://www.iryou.teikyouseido.mhlw.go.jp/znk-web/juminkanja/S2430/initialize?prefCd=17&kikanCd=5140014&kikanKbn=4", "url2": null }, "geometry": { "type": "Point", "coordinates": [ 136.613649, 36.585734 ] } },
{ "type": "Feature", "properties": { "内容": "助産院ｍｕｒｏ【4:助産院】石川県羽咋郡宝達志水町柳瀬", "url": "https://www.iryou.teikyouseido.mhlw.go.jp/znk-web/juminkanja/S2430/initialize?prefCd=17&kikanCd=538&kikanKbn=4", "url2": null }, "geometry": { "type": "Point", "coordinates": [ 136.778743, 36.859769 ] } },
{ "type": "Feature", "properties": { "内容": "まなゆり助産院【4:助産院】石川県金沢市大額１丁目６１番地", "url": "https://www.iryou.teikyouseido.mhlw.go.jp/znk-web/juminkanja/S2430/initialize?prefCd=17&kikanCd=540&kikanKbn=4", "url2": "https://www.manayuri-707.com/" }, "geometry": { "type": "Point", "coordinates": [ 136.620722, 36.515494 ] } },
{ "type": "Feature", "properties": { "内容": "あじさい助産院【4:助産院】石川県金沢市玉鉾２－３８３－１", "url": "https://www.iryou.teikyouseido.mhlw.go.jp/znk-web/juminkanja/S2430/initialize?prefCd=17&kikanCd=766&kikanKbn=4", "url2": null }, "geometry": { "type": "Point", "coordinates": [ 136.621146, 36.572386 ] } },
{ "type": "Feature", "properties": { "内容": "助産院　Ｆｕｍｉｙｏ　Ｍｉｄｗｉｆｅｒｙ【4:助産院】石川県野々市市御経塚１丁目１３９", "url": "https://www.iryou.teikyouseido.mhlw.go.jp/znk-web/juminkanja/S2430/initialize?prefCd=17&kikanCd=767&kikanKbn=4", "url2": "https://fumiyo-midwifery.jimdosite.com/" }, "geometry": { "type": "Point", "coordinates": [ 136.597874, 36.544647 ] } },
{ "type": "Feature", "properties": { "内容": "たんぽぽ助産院【4:助産院】石川県金沢市三口新町２－１１－１６", "url": "https://www.iryou.teikyouseido.mhlw.go.jp/znk-web/juminkanja/S2430/initialize?prefCd=17&kikanCd=771&kikanKbn=4", "url2": null }, "geometry": { "type": "Point", "coordinates": [ 136.65367, 36.56224 ] } },
{ "type": "Feature", "properties": { "内容": "母乳育児サポート美芳助産院【4:助産院】石川県金沢市新神田３－３－１３", "url": "https://www.iryou.teikyouseido.mhlw.go.jp/znk-web/juminkanja/S2430/initialize?prefCd=17&kikanCd=781&kikanKbn=4", "url2": "https://miho-josan-in.com/" }, "geometry": { "type": "Point", "coordinates": [ 136.631077, 36.561582 ] } },
{ "type": "Feature", "properties": { "内容": "やえ助産院【4:助産院】石川県白山市みずほ２－８－３", "url": "https://www.iryou.teikyouseido.mhlw.go.jp/znk-web/juminkanja/S2430/initialize?prefCd=17&kikanCd=797&kikanKbn=4", "url2": null }, "geometry": { "type": "Point", "coordinates": [ 136.658089, 36.535914 ] } },
{ "type": "Feature", "properties": { "内容": "しらうめ助産院【4:助産院】石川県金沢市泉野町３丁目１８番４号", "url": "https://www.iryou.teikyouseido.mhlw.go.jp/znk-web/juminkanja/S2430/initialize?prefCd=17&kikanCd=809&kikanKbn=4", "url2": null }, "geometry": { "type": "Point", "coordinates": [ 136.650706, 36.546947 ] } },
{ "type": "Feature", "properties": { "内容": "くじら助産院ファミリーサロン【4:助産院】石川県能美市小杉町イ２０３－７", "url": "https://www.iryou.teikyouseido.mhlw.go.jp/znk-web/juminkanja/S2430/initialize?prefCd=17&kikanCd=811&kikanKbn=4", "url2": "kujirajosanin.com" }, "geometry": { "type": "Point", "coordinates": [ 136.484034, 36.422919 ] } }
]
}
